<?xml version="1.0" encoding="UTF-8"?>
<kml xmlns="http://www.opengis.net/kml/2.2" xmlns:gx="http://www.google.com/kml/ext/2.2" xmlns:kml="http://www.opengis.net/kml/2.2" xmlns:atom="http://www.w3.org/2005/Atom">
<Document id="1jXu49Oe3iXWoHLAS1GdS8lUhKcpg8cUk">
	<name>1829</name>
	<gx:CascadingStyle kml:id="__managed_style_063BDFA5D64208DE4B08_highlight">
		<Style>
			<IconStyle>
				<scale>1.2</scale>
				<Icon>
					<href>https://earth.google.com/earth/document/icon?color=1976d2&amp;id=2161&amp;scale=4</href>
				</Icon>
				<hotSpot x="64" y="128" xunits="pixels" yunits="insetPixels"/>
			</IconStyle>
			<LabelStyle>
			</LabelStyle>
			<LineStyle>
				<color>ff2dc0fb</color>
				<width>6</width>
			</LineStyle>
			<PolyStyle>
				<color>40ffffff</color>
			</PolyStyle>
			<BalloonStyle>
			</BalloonStyle>
		</Style>
	</gx:CascadingStyle>
	<gx:CascadingStyle kml:id="__managed_style_26A61F81D84208DE4B0C_highlight">
		<styleUrl>https://earth.google.com/balloon_components/base/1.1.0.0/none_template.kml#main</styleUrl>
		<Style>
			<IconStyle>
				<scale>1.2</scale>
				<Icon>
					<href>https://earth.google.com/earth/document/icon?color=fbc02d&amp;id=2000&amp;scale=4</href>
				</Icon>
				<hotSpot x="64" y="128" xunits="pixels" yunits="insetPixels"/>
			</IconStyle>
			<LabelStyle>
			</LabelStyle>
			<LineStyle>
				<color>ff2dc0fb</color>
				<width>6</width>
			</LineStyle>
			<PolyStyle>
				<color>40ffffff</color>
			</PolyStyle>
			<BalloonStyle>
				<displayMode>hide</displayMode>
			</BalloonStyle>
		</Style>
	</gx:CascadingStyle>
	<gx:CascadingStyle kml:id="__managed_style_00483AB4E94208DE4B09_normal">
		<Style>
			<IconStyle>
				<Icon>
					<href>https://earth.google.com/earth/document/icon?color=1976d2&amp;id=2370&amp;scale=4</href>
				</Icon>
				<hotSpot x="64" y="128" xunits="pixels" yunits="insetPixels"/>
			</IconStyle>
			<LabelStyle>
			</LabelStyle>
			<LineStyle>
				<color>ff2dc0fb</color>
				<width>4</width>
			</LineStyle>
			<PolyStyle>
				<color>40ffffff</color>
			</PolyStyle>
			<BalloonStyle>
			</BalloonStyle>
		</Style>
	</gx:CascadingStyle>
	<gx:CascadingStyle kml:id="__managed_style_1C83A1B1A34208DE4B0B_highlight">
		<Style>
			<IconStyle>
				<scale>1.2</scale>
				<Icon>
					<href>https://earth.google.com/earth/document/icon?color=1976d2&amp;id=2000&amp;scale=4</href>
				</Icon>
				<hotSpot x="64" y="128" xunits="pixels" yunits="insetPixels"/>
			</IconStyle>
			<LabelStyle>
			</LabelStyle>
			<LineStyle>
				<color>ff2dc0fb</color>
				<width>6</width>
			</LineStyle>
			<PolyStyle>
				<color>40ffffff</color>
			</PolyStyle>
			<BalloonStyle>
			</BalloonStyle>
		</Style>
	</gx:CascadingStyle>
	<gx:CascadingStyle kml:id="__managed_style_1C83A1B1A34208DE4B0B_normal">
		<Style>
			<IconStyle>
				<Icon>
					<href>https://earth.google.com/earth/document/icon?color=1976d2&amp;id=2000&amp;scale=4</href>
				</Icon>
				<hotSpot x="64" y="128" xunits="pixels" yunits="insetPixels"/>
			</IconStyle>
			<LabelStyle>
			</LabelStyle>
			<LineStyle>
				<color>ff2dc0fb</color>
				<width>4</width>
			</LineStyle>
			<PolyStyle>
				<color>40ffffff</color>
			</PolyStyle>
			<BalloonStyle>
			</BalloonStyle>
		</Style>
	</gx:CascadingStyle>
	<StyleMap id="__managed_style_063BDFA5D64208DE4B08">
		<Pair>
			<key>normal</key>
			<styleUrl>#__managed_style_063BDFA5D64208DE4B08_normal</styleUrl>
		</Pair>
		<Pair>
			<key>highlight</key>
			<styleUrl>#__managed_style_063BDFA5D64208DE4B08_highlight</styleUrl>
		</Pair>
	</StyleMap>
	<StyleMap id="__managed_style_1C83A1B1A34208DE4B0B">
		<Pair>
			<key>normal</key>
			<styleUrl>#__managed_style_1C83A1B1A34208DE4B0B_normal</styleUrl>
		</Pair>
		<Pair>
			<key>highlight</key>
			<styleUrl>#__managed_style_1C83A1B1A34208DE4B0B_highlight</styleUrl>
		</Pair>
	</StyleMap>
	<gx:CascadingStyle kml:id="__managed_style_190BC693A84208DE4B0C_highlight">
		<Style>
			<IconStyle>
				<scale>1.2</scale>
				<Icon>
					<href>https://earth.google.com/earth/document/icon?color=1976d2&amp;id=2124&amp;scale=4</href>
				</Icon>
				<hotSpot x="64" y="128" xunits="pixels" yunits="insetPixels"/>
			</IconStyle>
			<LabelStyle>
			</LabelStyle>
			<LineStyle>
				<color>ff2dc0fb</color>
				<width>6</width>
			</LineStyle>
			<PolyStyle>
				<color>40ffffff</color>
			</PolyStyle>
			<BalloonStyle>
			</BalloonStyle>
		</Style>
	</gx:CascadingStyle>
	<gx:CascadingStyle kml:id="__managed_style_0882A904EB4208DE4B0B_highlight">
		<Style>
			<IconStyle>
				<scale>1.2</scale>
				<Icon>
					<href>https://earth.google.com/earth/document/icon?color=1976d2&amp;id=2000&amp;scale=4</href>
				</Icon>
				<hotSpot x="64" y="128" xunits="pixels" yunits="insetPixels"/>
			</IconStyle>
			<LabelStyle>
			</LabelStyle>
			<LineStyle>
				<color>ff2dc0fb</color>
				<width>6</width>
			</LineStyle>
			<PolyStyle>
				<color>40ffffff</color>
			</PolyStyle>
			<BalloonStyle>
			</BalloonStyle>
		</Style>
	</gx:CascadingStyle>
	<gx:CascadingStyle kml:id="__managed_style_2A84AD6C244208DE4B0B_highlight">
		<Style>
			<IconStyle>
				<scale>1.2</scale>
				<Icon>
					<href>https://earth.google.com/earth/document/icon?color=fbc02d&amp;id=2000&amp;scale=4</href>
				</Icon>
				<hotSpot x="64" y="128" xunits="pixels" yunits="insetPixels"/>
			</IconStyle>
			<LabelStyle>
			</LabelStyle>
			<LineStyle>
				<color>ff2dc0fb</color>
				<width>6</width>
			</LineStyle>
			<PolyStyle>
				<color>40ffffff</color>
			</PolyStyle>
			<BalloonStyle>
			</BalloonStyle>
		</Style>
	</gx:CascadingStyle>
	<gx:CascadingStyle kml:id="__managed_style_190BC693A84208DE4B0C_normal">
		<Style>
			<IconStyle>
				<Icon>
					<href>https://earth.google.com/earth/document/icon?color=1976d2&amp;id=2124&amp;scale=4</href>
				</Icon>
				<hotSpot x="64" y="128" xunits="pixels" yunits="insetPixels"/>
			</IconStyle>
			<LabelStyle>
			</LabelStyle>
			<LineStyle>
				<color>ff2dc0fb</color>
				<width>4</width>
			</LineStyle>
			<PolyStyle>
				<color>40ffffff</color>
			</PolyStyle>
			<BalloonStyle>
			</BalloonStyle>
		</Style>
	</gx:CascadingStyle>
	<StyleMap id="__managed_style_0C6ECBC9AF4208DE4B0C">
		<Pair>
			<key>normal</key>
			<styleUrl>#__managed_style_0C6ECBC9AF4208DE4B0C_normal</styleUrl>
		</Pair>
		<Pair>
			<key>highlight</key>
			<styleUrl>#__managed_style_0C6ECBC9AF4208DE4B0C_highlight</styleUrl>
		</Pair>
	</StyleMap>
	<StyleMap id="__managed_style_2A84AD6C244208DE4B0B">
		<Pair>
			<key>normal</key>
			<styleUrl>#__managed_style_2A84AD6C244208DE4B0B_normal</styleUrl>
		</Pair>
		<Pair>
			<key>highlight</key>
			<styleUrl>#__managed_style_2A84AD6C244208DE4B0B_highlight</styleUrl>
		</Pair>
	</StyleMap>
	<StyleMap id="__managed_style_0882A904EB4208DE4B0B">
		<Pair>
			<key>normal</key>
			<styleUrl>#__managed_style_0882A904EB4208DE4B0B_normal</styleUrl>
		</Pair>
		<Pair>
			<key>highlight</key>
			<styleUrl>#__managed_style_0882A904EB4208DE4B0B_highlight</styleUrl>
		</Pair>
	</StyleMap>
	<gx:CascadingStyle kml:id="__managed_style_00483AB4E94208DE4B09_highlight">
		<Style>
			<IconStyle>
				<scale>1.2</scale>
				<Icon>
					<href>https://earth.google.com/earth/document/icon?color=1976d2&amp;id=2370&amp;scale=4</href>
				</Icon>
				<hotSpot x="64" y="128" xunits="pixels" yunits="insetPixels"/>
			</IconStyle>
			<LabelStyle>
			</LabelStyle>
			<LineStyle>
				<color>ff2dc0fb</color>
				<width>6</width>
			</LineStyle>
			<PolyStyle>
				<color>40ffffff</color>
			</PolyStyle>
			<BalloonStyle>
			</BalloonStyle>
		</Style>
	</gx:CascadingStyle>
	<gx:CascadingStyle kml:id="__managed_style_26A61F81D84208DE4B0C_normal">
		<styleUrl>https://earth.google.com/balloon_components/base/1.1.0.0/none_template.kml#main</styleUrl>
		<Style>
			<IconStyle>
				<Icon>
					<href>https://earth.google.com/earth/document/icon?color=fbc02d&amp;id=2000&amp;scale=4</href>
				</Icon>
				<hotSpot x="64" y="128" xunits="pixels" yunits="insetPixels"/>
			</IconStyle>
			<LabelStyle>
			</LabelStyle>
			<LineStyle>
				<color>ff2dc0fb</color>
				<width>4</width>
			</LineStyle>
			<PolyStyle>
				<color>40ffffff</color>
			</PolyStyle>
			<BalloonStyle>
				<displayMode>hide</displayMode>
			</BalloonStyle>
		</Style>
	</gx:CascadingStyle>
	<gx:CascadingStyle kml:id="__managed_style_0882A904EB4208DE4B0B_normal">
		<Style>
			<IconStyle>
				<Icon>
					<href>https://earth.google.com/earth/document/icon?color=1976d2&amp;id=2000&amp;scale=4</href>
				</Icon>
				<hotSpot x="64" y="128" xunits="pixels" yunits="insetPixels"/>
			</IconStyle>
			<LabelStyle>
			</LabelStyle>
			<LineStyle>
				<color>ff2dc0fb</color>
				<width>4</width>
			</LineStyle>
			<PolyStyle>
				<color>40ffffff</color>
			</PolyStyle>
			<BalloonStyle>
			</BalloonStyle>
		</Style>
	</gx:CascadingStyle>
	<gx:CascadingStyle kml:id="__managed_style_2A84AD6C244208DE4B0B_normal">
		<Style>
			<IconStyle>
				<Icon>
					<href>https://earth.google.com/earth/document/icon?color=fbc02d&amp;id=2000&amp;scale=4</href>
				</Icon>
				<hotSpot x="64" y="128" xunits="pixels" yunits="insetPixels"/>
			</IconStyle>
			<LabelStyle>
			</LabelStyle>
			<LineStyle>
				<color>ff2dc0fb</color>
				<width>4</width>
			</LineStyle>
			<PolyStyle>
				<color>40ffffff</color>
			</PolyStyle>
			<BalloonStyle>
			</BalloonStyle>
		</Style>
	</gx:CascadingStyle>
	<StyleMap id="__managed_style_190BC693A84208DE4B0C">
		<Pair>
			<key>normal</key>
			<styleUrl>#__managed_style_190BC693A84208DE4B0C_normal</styleUrl>
		</Pair>
		<Pair>
			<key>highlight</key>
			<styleUrl>#__managed_style_190BC693A84208DE4B0C_highlight</styleUrl>
		</Pair>
	</StyleMap>
	<StyleMap id="__managed_style_00483AB4E94208DE4B09">
		<Pair>
			<key>normal</key>
			<styleUrl>#__managed_style_00483AB4E94208DE4B09_normal</styleUrl>
		</Pair>
		<Pair>
			<key>highlight</key>
			<styleUrl>#__managed_style_00483AB4E94208DE4B09_highlight</styleUrl>
		</Pair>
	</StyleMap>
	<StyleMap id="__managed_style_26A61F81D84208DE4B0C">
		<Pair>
			<key>normal</key>
			<styleUrl>#__managed_style_26A61F81D84208DE4B0C_normal</styleUrl>
		</Pair>
		<Pair>
			<key>highlight</key>
			<styleUrl>#__managed_style_26A61F81D84208DE4B0C_highlight</styleUrl>
		</Pair>
	</StyleMap>
	<gx:CascadingStyle kml:id="__managed_style_063BDFA5D64208DE4B08_normal">
		<Style>
			<IconStyle>
				<Icon>
					<href>https://earth.google.com/earth/document/icon?color=1976d2&amp;id=2161&amp;scale=4</href>
				</Icon>
				<hotSpot x="64" y="128" xunits="pixels" yunits="insetPixels"/>
			</IconStyle>
			<LabelStyle>
			</LabelStyle>
			<LineStyle>
				<color>ff2dc0fb</color>
				<width>4</width>
			</LineStyle>
			<PolyStyle>
				<color>40ffffff</color>
			</PolyStyle>
			<BalloonStyle>
			</BalloonStyle>
		</Style>
	</gx:CascadingStyle>
	<gx:CascadingStyle kml:id="__managed_style_0C6ECBC9AF4208DE4B0C_highlight">
		<Style>
			<IconStyle>
				<scale>1.2</scale>
				<Icon>
					<href>https://earth.google.com/earth/document/icon?color=fbc02d&amp;id=2000&amp;scale=4</href>
				</Icon>
				<hotSpot x="64" y="128" xunits="pixels" yunits="insetPixels"/>
			</IconStyle>
			<LabelStyle>
			</LabelStyle>
			<LineStyle>
				<color>ff2dc0fb</color>
				<width>6</width>
			</LineStyle>
			<PolyStyle>
				<color>40ffffff</color>
			</PolyStyle>
			<BalloonStyle>
				<gx:displayMode>card</gx:displayMode>
			</BalloonStyle>
		</Style>
	</gx:CascadingStyle>
	<gx:CascadingStyle kml:id="__managed_style_0C6ECBC9AF4208DE4B0C_normal">
		<Style>
			<IconStyle>
				<Icon>
					<href>https://earth.google.com/earth/document/icon?color=fbc02d&amp;id=2000&amp;scale=4</href>
				</Icon>
				<hotSpot x="64" y="128" xunits="pixels" yunits="insetPixels"/>
			</IconStyle>
			<LabelStyle>
			</LabelStyle>
			<LineStyle>
				<color>ff2dc0fb</color>
				<width>4</width>
			</LineStyle>
			<PolyStyle>
				<color>40ffffff</color>
			</PolyStyle>
			<BalloonStyle>
				<gx:displayMode>card</gx:displayMode>
			</BalloonStyle>
		</Style>
	</gx:CascadingStyle>
	<Placemark id="0051D3613341D9FE58A3">
		<gx:mid>/g/11s7bw38qh</gx:mid>
		<gx:fid>0x487add13b6060227:0x5e893e1367342860</gx:fid>
		<LookAt>
			<longitude>-2.90235045</longitude>
			<latitude>53.21248165</latitude>
			<altitude>0</altitude>
			<heading>0</heading>
			<tilt>0</tilt>
			<gx:fovy>35</gx:fovy>
			<range>289.7849571494569</range>
			<altitudeMode>relativeToGround</altitudeMode>
		</LookAt>
		<styleUrl>#__managed_style_0C6ECBC9AF4208DE4B0C</styleUrl>
		<Point>
			<altitudeMode>relativeToGround</altitudeMode>
			<coordinates>-2.9011964,53.2125148,0</coordinates>
		</Point>
	</Placemark>
	<Placemark id="03A3F5565841D9FEE1D4">
		<gx:mid>/g/11b6ggrw0v</gx:mid>
		<gx:fid>0x487add133c3178f5:0x596ea7fa67dabbd2</gx:fid>
		<LookAt>
			<longitude>-2.8988043</longitude>
			<latitude>53.21160320000001</latitude>
			<altitude>0</altitude>
			<heading>0</heading>
			<tilt>0</tilt>
			<gx:fovy>35</gx:fovy>
			<range>602.2949393709204</range>
			<altitudeMode>relativeToGround</altitudeMode>
		</LookAt>
		<styleUrl>#__managed_style_0C6ECBC9AF4208DE4B0C</styleUrl>
		<Point>
			<altitudeMode>relativeToGround</altitudeMode>
			<coordinates>-2.898804299999999,53.21160320000001,0</coordinates>
		</Point>
	</Placemark>
	<Placemark id="0C1E9B6A6F41D9FF1646">
		<name>The Old Church</name>
		<LookAt>
			<longitude>-2.900501</longitude>
			<latitude>53.2108814</latitude>
			<altitude>0</altitude>
			<heading>0</heading>
			<tilt>0</tilt>
			<gx:fovy>35</gx:fovy>
			<range>602.3058514247559</range>
			<altitudeMode>relativeToGround</altitudeMode>
		</LookAt>
		<styleUrl>#__managed_style_26A61F81D84208DE4B0C</styleUrl>
		<Point>
			<altitudeMode>relativeToGround</altitudeMode>
			<coordinates>-2.900501,53.21088139999999,0</coordinates>
		</Point>
	</Placemark>
	<Placemark id="06E3A6666741D9FF855C">
		<gx:mid>/g/11yrflrxfq</gx:mid>
		<gx:fid>0x487add001ab47e73:0x1b3e65bd72ba1f55</gx:fid>
		<LookAt>
			<longitude>-2.8995082</longitude>
			<latitude>53.2108487</latitude>
			<altitude>0</altitude>
			<heading>0</heading>
			<tilt>0</tilt>
			<gx:fovy>35</gx:fovy>
			<range>602.3063457761612</range>
			<altitudeMode>relativeToGround</altitudeMode>
		</LookAt>
		<styleUrl>#__managed_style_0C6ECBC9AF4208DE4B0C</styleUrl>
		<Point>
			<altitudeMode>relativeToGround</altitudeMode>
			<coordinates>-2.8995082,53.2108487,0</coordinates>
		</Point>
	</Placemark>
	<Placemark id="04885AE7C841DA002CA8">
		<name>Water tower</name>
		<LookAt>
			<longitude>-2.899776361598906</longitude>
			<latitude>53.2119851514169</latitude>
			<altitude>19.99583705215237</altitude>
			<heading>0</heading>
			<tilt>0</tilt>
			<gx:fovy>35</gx:fovy>
			<range>485.453427934408</range>
			<altitudeMode>absolute</altitudeMode>
		</LookAt>
		<styleUrl>#__managed_style_2A84AD6C244208DE4B0B</styleUrl>
		<Point>
			<coordinates>-2.900961415659128,53.21234432581698,21.23962646489052</coordinates>
		</Point>
	</Placemark>
	<Placemark id="087E990ACF41DA0282E7">
		<name>Upton grange</name>
		<LookAt>
			<longitude>-2.900676711624031</longitude>
			<latitude>53.21246214609381</latitude>
			<altitude>26.4639565373378</altitude>
			<heading>0</heading>
			<tilt>0</tilt>
			<gx:fovy>35</gx:fovy>
			<range>927.2594497272803</range>
			<altitudeMode>absolute</altitudeMode>
		</LookAt>
		<styleUrl>#__managed_style_0882A904EB4208DE4B0B</styleUrl>
		<LineString>
			<coordinates>
				-2.896259167253046,53.21301016223878,0 -2.896652969453645,53.21302673695178,0 -2.897110899470321,53.21309375477447,0 -2.897633331094762,53.21325036365572,0 -2.898212041841766,53.21338457968385,0 -2.898708044066588,53.21350135621789,0 -2.899156082326041,53.21355150946442,0 -2.899752580908499,53.21351863628442,0 -2.900190919205169,53.21343557689564,0 -2.900499067765008,53.21337477123785,0 -2.900966777519653,53.21333626021024,0 -2.901444062056346,53.21335316021886,0 
			</coordinates>
		</LineString>
	</Placemark>
	<Placemark id="07062DACFF41DA02EC57">
		<name>Gerrard Crescent</name>
		<LookAt>
			<longitude>-2.900676711624031</longitude>
			<latitude>53.21246214609381</latitude>
			<altitude>26.4639565373378</altitude>
			<heading>0</heading>
			<tilt>0</tilt>
			<gx:fovy>35</gx:fovy>
			<range>927.2594497272803</range>
			<altitudeMode>absolute</altitudeMode>
		</LookAt>
		<styleUrl>#__managed_style_1C83A1B1A34208DE4B0B</styleUrl>
		<LineString>
			<coordinates>
				-2.900499058444014,53.21335802183945,0 -2.900461670495097,53.21321799916089,0 -2.900882232909611,53.21250130650868,0 -2.901358708086544,53.21236703409656,0 -2.901620353642336,53.21237821657313,0 -2.901956702907276,53.21241737902921,0 -2.90219078401848,53.21246773338753,0 -2.902200831634399,53.21270291351235,0 -2.902228887735702,53.21282610171464,0 -2.902396943953663,53.21299960176093,0 
			</coordinates>
		</LineString>
	</Placemark>
	<Placemark id="0CE163903441DA036630">
		<name>Frost drive</name>
		<LookAt>
			<longitude>-2.899930719481442</longitude>
			<latitude>53.21278869221481</latitude>
			<altitude>19.32619860387955</altitude>
			<heading>0</heading>
			<tilt>0</tilt>
			<gx:fovy>35</gx:fovy>
			<range>286.0549413879563</range>
			<altitudeMode>absolute</altitudeMode>
		</LookAt>
		<styleUrl>#__managed_style_1C83A1B1A34208DE4B0B</styleUrl>
		<LineString>
			<coordinates>
				-2.900859538234162,53.21249341029272,0 -2.900813102363153,53.21241811219297,0 -2.900709699544046,53.21235992759773,0 -2.90054584920395,53.2123415052643,0 -2.900408231594522,53.2123811578582,0 -2.899407183611915,53.21275614013653,0 -2.899504397536915,53.21284866137272,0 -2.899587592593399,53.21295136249925,0 -2.899693126713772,53.2131675339584,0 
			</coordinates>
		</LineString>
	</Placemark>
	<Placemark id="0D18A9404A41DA0516C3">
		<name>Vivienne Smith Lane</name>
		<LookAt>
			<longitude>-2.90068303124112</longitude>
			<latitude>53.21390925131339</latitude>
			<altitude>19.85392204572598</altitude>
			<heading>-6.219485729927987</heading>
			<tilt>38.78824246272017</tilt>
			<gx:fovy>35</gx:fovy>
			<range>581.8689500519395</range>
			<altitudeMode>absolute</altitudeMode>
		</LookAt>
		<styleUrl>#__managed_style_1C83A1B1A34208DE4B0B</styleUrl>
		<LineString>
			<coordinates>
				-2.896309465258856,53.21130155758989,0 -2.897093375972248,53.2112718811965,0 -2.897416174429322,53.21143801815092,0 -2.897663317559424,53.21159509104915,0 -2.897996201058339,53.21192735586899,0 -2.898389019656778,53.21228701175996,0 -2.898631301217852,53.21249256019991,0 -2.899159023168131,53.21270186133145,0 -2.899427159494813,53.21282648064361,0 -2.899549438427332,53.21296828156222,0 -2.899692812556901,53.21327976341084,0 -2.899808869314286,53.21380144505647,0 -2.899699227724268,53.21426169273961,0 -2.89935345768237,53.21477331031782,0 
			</coordinates>
		</LineString>
	</Placemark>
	<Placemark id="0B6163721341DA188A40">
		<name>Upton Grange (Part2)</name>
		<LookAt>
			<longitude>-2.90063655796901</longitude>
			<latitude>53.21430873966184</latitude>
			<altitude>19.76654952411289</altitude>
			<heading>-6.225074285166345</heading>
			<tilt>0.2081673107321101</tilt>
			<gx:fovy>35</gx:fovy>
			<range>613.4425884245867</range>
			<altitudeMode>absolute</altitudeMode>
		</LookAt>
		<styleUrl>#__managed_style_1C83A1B1A34208DE4B0B</styleUrl>
		<LineString>
			<coordinates>
				-2.898064909292112,53.21335794667125,0 -2.897958040635368,53.21352666483392,0 -2.897853989838809,53.2137365897461,0 -2.897855576269835,53.21387706928258,0 -2.897931194742189,53.21405322189376,0 -2.898123269099139,53.21412203627517,0 -2.898412186185714,53.21414756281419,0 -2.899004991444455,53.21415673410623,0 -2.8994221013126,53.21418111020551,0 -2.899883077325891,53.21427660092655,0 -2.900339598924615,53.21444694206281,0 -2.900622204989355,53.21453621268903,0 -2.901029144513752,53.21459144912511,0 -2.901377873629307,53.21459846138576,0 -2.901820370811653,53.2145734095397,0 -2.902174463271956,53.21454634627666,0 -2.902803912235368,53.21435306232906,0 -2.903059532798894,53.21459650962811,0 -2.903331607107327,53.21474161490756,0 
			</coordinates>
		</LineString>
	</Placemark>
	<Placemark id="046BC782E241DA19850E">
		<name>Ross Avenue</name>
		<LookAt>
			<longitude>-2.901257975892858</longitude>
			<latitude>53.21445489872933</latitude>
			<altitude>19.00179156047145</altitude>
			<heading>-6.226527497817838</heading>
			<tilt>0.2081611469182429</tilt>
			<gx:fovy>35</gx:fovy>
			<range>424.923365708819</range>
			<altitudeMode>absolute</altitudeMode>
		</LookAt>
		<styleUrl>#__managed_style_1C83A1B1A34208DE4B0B</styleUrl>
		<LineString>
			<coordinates>
				-2.901425414782641,53.21337308156646,0 -2.901696883768792,53.2145731886279,0 
			</coordinates>
		</LineString>
	</Placemark>
	<Placemark id="0F9A3F6C6141DA19F49C">
		<name>Ross Avenue (Part 2)</name>
		<LookAt>
			<longitude>-2.901257975892858</longitude>
			<latitude>53.21445489872933</latitude>
			<altitude>19.00179156047145</altitude>
			<heading>-6.226527497817838</heading>
			<tilt>0.2081611469182429</tilt>
			<gx:fovy>35</gx:fovy>
			<range>424.923365708819</range>
			<altitudeMode>absolute</altitudeMode>
		</LookAt>
		<styleUrl>#__managed_style_1C83A1B1A34208DE4B0B</styleUrl>
		<LineString>
			<coordinates>
				-2.900949260480604,53.21407941331306,0 -2.901570270285414,53.21402605969972,0 -2.901688610585034,53.21406181121066,0 -2.901988793707423,53.21403430404006,0 -2.902059767048287,53.21399873966258,0 -2.90236085247253,53.21395606196563,0 -2.902317049340239,53.21373192245804,0 
			</coordinates>
		</LineString>
	</Placemark>
	<Placemark id="0968FE6BB541DA1AA614">
		<name>Lockwood View</name>
		<LookAt>
			<longitude>-2.902597608612303</longitude>
			<latitude>53.21485828482277</latitude>
			<altitude>15.41926803620506</altitude>
			<heading>-6.227600389601516</heading>
			<tilt>0.2081612584353637</tilt>
			<gx:fovy>35</gx:fovy>
			<range>428.505834531461</range>
			<altitudeMode>absolute</altitudeMode>
		</LookAt>
		<styleUrl>#__managed_style_1C83A1B1A34208DE4B0B</styleUrl>
		<LineString>
			<coordinates>
				-2.903393112418281,53.2150898362108,0 -2.903397879628907,53.21474678526541,0 -2.903672120201239,53.21460019572655,0 -2.90396517154417,53.21450628666847,0 -2.904452708070861,53.21496666630502,0 -2.903522082396588,53.21408529331612,0 
			</coordinates>
		</LineString>
	</Placemark>
	<Placemark id="0144DB6B8741DA2244E0">
		<name>Warren Lane</name>
		<LookAt>
			<longitude>-2.902555110468929</longitude>
			<latitude>53.21469274112156</latitude>
			<altitude>16.20325731583911</altitude>
			<heading>-6.227397547710986</heading>
			<tilt>0.2081686493632124</tilt>
			<gx:fovy>35</gx:fovy>
			<range>654.7784462267737</range>
			<altitudeMode>absolute</altitudeMode>
		</LookAt>
		<styleUrl>#__managed_style_1C83A1B1A34208DE4B0B</styleUrl>
		<LineString>
			<coordinates>
				-2.902293492282884,53.21452072504102,0 -2.902424349451245,53.21469734500754,0 -2.902503913094558,53.2148813296962,0 -2.902442014423819,53.21501165821734,0 -2.902434964841152,53.2151543815612,0 -2.902319413967622,53.21528060981314,0 -2.902141217019575,53.21531599334375,0 -2.901904986158562,53.21528374226288,0 -2.90151569731684,53.21517095700523,0 -2.901207948840398,53.21510405451149,0 -2.901018148246276,53.215108502086,0 -2.90092046924293,53.2150399316677,0 -2.900923352526392,53.21487422079654,0 -2.900952235090912,53.21470293641391,0 -2.900990303493822,53.21459011129645,0 
			</coordinates>
		</LineString>
	</Placemark>
	<Placemark id="08F71CA0D541DAB7C470">
		<name>Valley drive</name>
		<LookAt>
			<longitude>-2.899875309953855</longitude>
			<latitude>53.21135730104133</latitude>
			<altitude>19.46816281319189</altitude>
			<heading>-6.225104371128376</heading>
			<tilt>0.208171667479291</tilt>
			<gx:fovy>35</gx:fovy>
			<range>747.8558377741138</range>
			<altitudeMode>absolute</altitudeMode>
		</LookAt>
		<styleUrl>#__managed_style_0882A904EB4208DE4B0B</styleUrl>
		<LineString>
			<coordinates>
				-2.897322641137371,53.21136209038154,0 -2.897283083445968,53.21122528564083,0 -2.897286943025854,53.21104064282601,0 -2.897326490808193,53.21084900720159,0 -2.897382929060584,53.21066107321472,0 -2.897358914023865,53.21044676211101,0 -2.897298103225019,53.21023500446143,0 -2.897185169867443,53.21006713611605,0 
			</coordinates>
		</LineString>
	</Placemark>
	<Placemark id="0F749AC08141DAB88364">
		<name>Parsons Lane</name>
		<LookAt>
			<longitude>-2.898864082808895</longitude>
			<latitude>53.21097515169232</latitude>
			<altitude>19.56207925780586</altitude>
			<heading>-6.225102626508654</heading>
			<tilt>0.2081600811083635</tilt>
			<gx:fovy>35</gx:fovy>
			<range>393.2226213812828</range>
			<altitudeMode>absolute</altitudeMode>
		</LookAt>
		<styleUrl>#__managed_style_0882A904EB4208DE4B0B</styleUrl>
		<LineString>
			<coordinates>
				-2.89736372205338,53.2107822302679,0 -2.89766068540436,53.2108290819826,0 -2.89784234533188,53.2108457642283,0 -2.898027825345598,53.21082647152078,0 -2.899212660443592,53.21050570669559,0 -2.899528058503591,53.21045890260287,0 -2.899682695052207,53.21045783161306,0 -2.899843779707652,53.21053961141882,0 -2.900387578174898,53.21110320750398,0 
			</coordinates>
		</LineString>
	</Placemark>
	<Placemark id="04B3571AF641DAB900F4">
		<name>Parsons Lane (Upton Lea)</name>
		<LookAt>
			<longitude>-2.898864082808895</longitude>
			<latitude>53.21097515169232</latitude>
			<altitude>19.56207925780586</altitude>
			<heading>-6.225102626508654</heading>
			<tilt>0.2081600811083635</tilt>
			<gx:fovy>35</gx:fovy>
			<range>393.2226213812828</range>
			<altitudeMode>absolute</altitudeMode>
		</LookAt>
		<styleUrl>#__managed_style_0882A904EB4208DE4B0B</styleUrl>
		<LineString>
			<coordinates>
				-2.900111962925594,53.21078940534549,0 -2.900496349340962,53.21065030021202,0 -2.90067475779724,53.21061944822505,0 -2.901010750291148,53.21049208253291,0 -2.90117799784943,53.21065965211194,0 -2.901221790061996,53.21064013870497,0 -2.90149389290943,53.21088918742917,0 
			</coordinates>
		</LineString>
	</Placemark>
	<Placemark id="01E30572D241DAB9B676">
		<name>Parsons Lane (1829 Central)</name>
		<LookAt>
			<longitude>-2.899101565389635</longitude>
			<latitude>53.21145402336018</latitude>
			<altitude>28.59601037073294</altitude>
			<heading>-6.225292817229982</heading>
			<tilt>0.2081597826828605</tilt>
			<gx:fovy>35</gx:fovy>
			<range>384.1886189460274</range>
			<altitudeMode>absolute</altitudeMode>
		</LookAt>
		<styleUrl>#__managed_style_0882A904EB4208DE4B0B</styleUrl>
		<LineString>
			<coordinates>
				-2.898791759622665,53.21061938970924,0 -2.899490346465749,53.21124680403193,0 -2.89956268843896,53.21127517983464,0 -2.899905770250081,53.21156995684809,0 -2.900071127421247,53.21160663871225,0 -2.900425194036963,53.21191351488383,0 
			</coordinates>
		</LineString>
	</Placemark>
	<Placemark id="09917D3B2C41DE42EC07">
		<name>Parsons Lane (North)</name>
		<LookAt>
			<longitude>-2.904014319651944</longitude>
			<latitude>53.21525045066313</latitude>
			<altitude>14.55924495592324</altitude>
			<heading>-6.229227371557046</heading>
			<tilt>0.208160206106154</tilt>
			<gx:fovy>35</gx:fovy>
			<range>398.2255062030891</range>
			<altitudeMode>absolute</altitudeMode>
		</LookAt>
		<styleUrl>#__managed_style_0882A904EB4208DE4B0B</styleUrl>
		<LineString>
			<coordinates>
				-2.897999771320525,53.21410054613474,0 -2.898012511724097,53.21425776527607,0 -2.897984756842085,53.21436352393354,0 -2.897989615943446,53.21449354516925,0 -2.898057085797929,53.2146292570072,0 -2.89818325420696,53.21472560838141,0 -2.898464517714434,53.2147358652563,0 -2.898735100999682,53.21476345446982,0 -2.898992744674217,53.21484373181059,0 -2.899262890329173,53.21489827989112,0 -2.899710623825071,53.21492451329483,0 -2.900045906017271,53.21494280296685,0 -2.90044316417596,53.21498126973069,0 -2.900720488522517,53.21501828250831,0 -2.901014244006455,53.21519298434094,0 -2.901220302068777,53.21531577142713,0 -2.901523832369282,53.21544007609592,0 -2.901691386292208,53.21553572741011,0 -2.901979211149376,53.21560882618691,0 -2.9023273712319,53.21559564255112,0 -2.902716168906595,53.21552878360354,0 -2.903134884251541,53.21545660349197,0 -2.903482637499669,53.21545051103659,0 -2.903911729320134,53.21543462088491,0 -2.90426959876753,53.21541872491785,0 -2.904535445247221,53.21538206045087,0 -2.904812932726325,53.21536165017384,0 
			</coordinates>
		</LineString>
	</Placemark>
	<Placemark id="044C7547BE41E13B7457">
		<name>Caldecott Close</name>
		<LookAt>
			<longitude>-2.899270838686135</longitude>
			<latitude>53.21298861035022</latitude>
			<altitude>33.604823722267</altitude>
			<heading>-6.225810702929852</heading>
			<tilt>0.208156015590074</tilt>
			<gx:fovy>35</gx:fovy>
			<range>270.0874528146233</range>
			<altitudeMode>absolute</altitudeMode>
		</LookAt>
		<styleUrl>#__managed_style_0882A904EB4208DE4B0B</styleUrl>
		<LineString>
			<coordinates>
				-2.897662534688146,53.21326016361508,0 -2.897752954418559,53.21310875598049,0 -2.897836304800525,53.21301098474764,0 -2.897965163176285,53.21294791350605,0 -2.898187558702699,53.21289590501128,0 -2.898457894986998,53.21285954788812,0 -2.898512818635337,53.21299246175613,0 -2.898869544021897,53.21293155641066,0 
			</coordinates>
		</LineString>
	</Placemark>
	<Placemark id="0584CDBE6841E4B0CC1B">
		<name>Pine1</name>
		<LookAt>
			<longitude>-2.899558511835037</longitude>
			<latitude>53.21339037215748</latitude>
			<altitude>34.52347115911969</altitude>
			<heading>-6.226417292821624</heading>
			<tilt>0.2081497562603729</tilt>
			<gx:fovy>35</gx:fovy>
			<range>78.92871293416647</range>
			<altitudeMode>absolute</altitudeMode>
		</LookAt>
		<styleUrl>#__managed_style_00483AB4E94208DE4B09</styleUrl>
		<Point>
			<coordinates>-2.899462848266841,53.21333437945022,37.49250189993169</coordinates>
		</Point>
	</Placemark>
	<Placemark id="0D061CDD2D41E4B112F4">
		<name>Pine2</name>
		<LookAt>
			<longitude>-2.899558511835037</longitude>
			<latitude>53.21339037215748</latitude>
			<altitude>34.52347115911969</altitude>
			<heading>-6.226417292821624</heading>
			<tilt>0.2081497562603729</tilt>
			<gx:fovy>35</gx:fovy>
			<range>78.92871293416647</range>
			<altitudeMode>absolute</altitudeMode>
		</LookAt>
		<styleUrl>#__managed_style_00483AB4E94208DE4B09</styleUrl>
		<Point>
			<coordinates>-2.899621577301846,53.21338387439018,35.47946022802977</coordinates>
		</Point>
	</Placemark>
	<Placemark id="01E8CB88FB41E4B25D89">
		<name>Pine3</name>
		<LookAt>
			<longitude>-2.900581981437705</longitude>
			<latitude>53.21362992618153</latitude>
			<altitude>29.18092669209446</altitude>
			<heading>-6.227150265704851</heading>
			<tilt>0.2081521991536897</tilt>
			<gx:fovy>35</gx:fovy>
			<range>126.1704722124159</range>
			<altitudeMode>absolute</altitudeMode>
		</LookAt>
		<styleUrl>#__managed_style_00483AB4E94208DE4B09</styleUrl>
		<Point>
			<coordinates>-2.900355604075859,53.21351028636158,32.65776581109127</coordinates>
		</Point>
	</Placemark>
	<Placemark id="01D1122B6C41E4B28D9B">
		<name>Pine4</name>
		<LookAt>
			<longitude>-2.900581981437705</longitude>
			<latitude>53.21362992618153</latitude>
			<altitude>29.18092669209446</altitude>
			<heading>-6.227150265704851</heading>
			<tilt>0.2081521991536897</tilt>
			<gx:fovy>35</gx:fovy>
			<range>126.1704722124159</range>
			<altitudeMode>absolute</altitudeMode>
		</LookAt>
		<styleUrl>#__managed_style_00483AB4E94208DE4B09</styleUrl>
		<Point>
			<coordinates>-2.900312794836286,53.21357516939867,39.12988516652521</coordinates>
		</Point>
	</Placemark>
	<Placemark id="041595120241E4B2AEE0">
		<name>Pine5</name>
		<LookAt>
			<longitude>-2.900581981437705</longitude>
			<latitude>53.21362992618153</latitude>
			<altitude>29.18092669209446</altitude>
			<heading>-6.227150265704512</heading>
			<tilt>0.2081521991536897</tilt>
			<gx:fovy>35</gx:fovy>
			<range>126.1704722124159</range>
			<altitudeMode>absolute</altitudeMode>
		</LookAt>
		<styleUrl>#__managed_style_00483AB4E94208DE4B09</styleUrl>
		<Point>
			<coordinates>-2.900316125924371,53.21364563728186,35.971519526475</coordinates>
		</Point>
	</Placemark>
	<Placemark id="09D0D3734141E4B2C858">
		<name>Pine6</name>
		<LookAt>
			<longitude>-2.900581981437705</longitude>
			<latitude>53.21362992618153</latitude>
			<altitude>29.18092669209446</altitude>
			<heading>-6.227150265705301</heading>
			<tilt>0.2081521991571915</tilt>
			<gx:fovy>35</gx:fovy>
			<range>126.1704722124159</range>
			<altitudeMode>absolute</altitudeMode>
		</LookAt>
		<styleUrl>#__managed_style_00483AB4E94208DE4B09</styleUrl>
		<Point>
			<coordinates>-2.900316353792806,53.21370914425854,39.25220333444722</coordinates>
		</Point>
	</Placemark>
	<Placemark id="0D4602E8A441E4B2E050">
		<name>Pine7</name>
		<LookAt>
			<longitude>-2.900581981437705</longitude>
			<latitude>53.21362992618153</latitude>
			<altitude>29.18092669209446</altitude>
			<heading>-6.227150265705301</heading>
			<tilt>0.2081521991571915</tilt>
			<gx:fovy>35</gx:fovy>
			<range>126.1704722124159</range>
			<altitudeMode>absolute</altitudeMode>
		</LookAt>
		<styleUrl>#__managed_style_00483AB4E94208DE4B09</styleUrl>
		<Point>
			<coordinates>-2.900203080148801,53.21374583871513,39.33182443728457</coordinates>
		</Point>
	</Placemark>
	<Placemark id="0D2F07566241E4B2F3B8">
		<name>Pine8</name>
		<LookAt>
			<longitude>-2.900581981437705</longitude>
			<latitude>53.21362992618153</latitude>
			<altitude>29.18092669209446</altitude>
			<heading>-6.227150265705301</heading>
			<tilt>0.2081521991571915</tilt>
			<gx:fovy>35</gx:fovy>
			<range>126.1704722124159</range>
			<altitudeMode>absolute</altitudeMode>
		</LookAt>
		<styleUrl>#__managed_style_00483AB4E94208DE4B09</styleUrl>
		<Point>
			<coordinates>-2.900191102517814,53.2138068166832,41.30698755440273</coordinates>
		</Point>
	</Placemark>
	<Placemark id="006C11163B41E4B30E39">
		<name>Pine9</name>
		<LookAt>
			<longitude>-2.900581981437705</longitude>
			<latitude>53.21362992618153</latitude>
			<altitude>29.18092669209446</altitude>
			<heading>-6.227150265705301</heading>
			<tilt>0.2081521991571915</tilt>
			<gx:fovy>35</gx:fovy>
			<range>126.1704722124159</range>
			<altitudeMode>absolute</altitudeMode>
		</LookAt>
		<styleUrl>#__managed_style_00483AB4E94208DE4B09</styleUrl>
		<Point>
			<coordinates>-2.899989065809271,53.21377469849358,39.11542980679501</coordinates>
		</Point>
	</Placemark>
	<Placemark id="06F157298E41E4B32154">
		<name>Pine10</name>
		<LookAt>
			<longitude>-2.900581981437705</longitude>
			<latitude>53.21362992618153</latitude>
			<altitude>29.18092669209446</altitude>
			<heading>-6.227150265705301</heading>
			<tilt>0.2081521991571915</tilt>
			<gx:fovy>35</gx:fovy>
			<range>126.1704722124159</range>
			<altitudeMode>absolute</altitudeMode>
		</LookAt>
		<styleUrl>#__managed_style_00483AB4E94208DE4B09</styleUrl>
		<Point>
			<coordinates>-2.9000317313145,53.21368465879902,37.99185710885625</coordinates>
		</Point>
	</Placemark>
	<Placemark id="06C9A54D1241E4B336DC">
		<name>Pine11</name>
		<LookAt>
			<longitude>-2.900581981437705</longitude>
			<latitude>53.21362992618153</latitude>
			<altitude>29.18092669209446</altitude>
			<heading>-6.227150265705301</heading>
			<tilt>0.2081521991571915</tilt>
			<gx:fovy>35</gx:fovy>
			<range>126.1704722124159</range>
			<altitudeMode>absolute</altitudeMode>
		</LookAt>
		<styleUrl>#__managed_style_00483AB4E94208DE4B09</styleUrl>
		<Point>
			<coordinates>-2.899964754092471,53.21360481569926,36.24931435218394</coordinates>
		</Point>
	</Placemark>
	<Placemark id="066DD6957441E4B35180">
		<name>Pine12</name>
		<LookAt>
			<longitude>-2.900581981437705</longitude>
			<latitude>53.21362992618153</latitude>
			<altitude>29.18092669209446</altitude>
			<heading>-6.227150265705301</heading>
			<tilt>0.2081521991571915</tilt>
			<gx:fovy>35</gx:fovy>
			<range>126.1704722124159</range>
			<altitudeMode>absolute</altitudeMode>
		</LookAt>
		<styleUrl>#__managed_style_00483AB4E94208DE4B09</styleUrl>
		<Point>
			<coordinates>-2.899722378534257,53.21361598272873,24.1099832560852</coordinates>
		</Point>
	</Placemark>
	<Placemark id="0460E196C641E4B451B4">
		<name>Pine13</name>
		<LookAt>
			<longitude>-2.898954229841314</longitude>
			<latitude>53.21243139115388</latitude>
			<altitude>19.4228146941793</altitude>
			<heading>-6.226829235244485</heading>
			<tilt>0.2081552822822334</tilt>
			<gx:fovy>35</gx:fovy>
			<range>221.5116778332231</range>
			<altitudeMode>absolute</altitudeMode>
		</LookAt>
		<styleUrl>#__managed_style_00483AB4E94208DE4B09</styleUrl>
		<Point>
			<coordinates>-2.898631599455427,53.2125584822905,37.36121821953898</coordinates>
		</Point>
	</Placemark>
	<Placemark id="04E5D673C141E4B48A2C">
		<name>Oak1</name>
		<LookAt>
			<longitude>-2.901617820671793</longitude>
			<latitude>53.21189483391112</latitude>
			<altitude>17.7866212826951</altitude>
			<heading>-6.228419006374324</heading>
			<tilt>0.2081520226484084</tilt>
			<gx:fovy>35</gx:fovy>
			<range>122.1651512670542</range>
			<altitudeMode>absolute</altitudeMode>
		</LookAt>
		<styleUrl>#__managed_style_00483AB4E94208DE4B09</styleUrl>
		<Point>
			<coordinates>-2.901802582414038,53.21189670504701,35.08346590540516</coordinates>
		</Point>
	</Placemark>
	<Placemark id="094FA1453341E4B4D884">
		<name>Oak2</name>
		<LookAt>
			<longitude>-2.901617820671793</longitude>
			<latitude>53.21189483391112</latitude>
			<altitude>17.7866212826951</altitude>
			<heading>-6.228419006374324</heading>
			<tilt>0.2081520226484084</tilt>
			<gx:fovy>35</gx:fovy>
			<range>122.1651512670542</range>
			<altitudeMode>absolute</altitudeMode>
		</LookAt>
		<styleUrl>#__managed_style_00483AB4E94208DE4B09</styleUrl>
		<Point>
			<coordinates>-2.901838541265734,53.21178513694809,32.00858831807729</coordinates>
		</Point>
	</Placemark>
	<Placemark id="02E975EAC341E4D476BC">
		<name>Oak3</name>
		<LookAt>
			<longitude>-2.902133403878351</longitude>
			<latitude>53.21247658959224</latitude>
			<altitude>17.92123926248458</altitude>
			<heading>-6.22881016487116</heading>
			<tilt>0.2081523468485994</tilt>
			<gx:fovy>35</gx:fovy>
			<range>132.372334249103</range>
			<altitudeMode>absolute</altitudeMode>
		</LookAt>
		<styleUrl>#__managed_style_00483AB4E94208DE4B09</styleUrl>
		<Point>
			<coordinates>-2.902344128207587,53.21248561331796,35.98067115999154</coordinates>
		</Point>
	</Placemark>
	<Placemark id="0E7B771A1041E4D49867">
		<name>Oak4</name>
		<LookAt>
			<longitude>-2.902133403878351</longitude>
			<latitude>53.21247658959224</latitude>
			<altitude>17.92123926248458</altitude>
			<heading>-6.22881016487116</heading>
			<tilt>0.2081523468485994</tilt>
			<gx:fovy>35</gx:fovy>
			<range>132.372334249103</range>
			<altitudeMode>absolute</altitudeMode>
		</LookAt>
		<styleUrl>#__managed_style_00483AB4E94208DE4B09</styleUrl>
		<Point>
			<coordinates>-2.902333865037892,53.21258965162429,37.0641219211794</coordinates>
		</Point>
	</Placemark>
	<Placemark id="04C830B7B541E4D4C077">
		<name>Oak5</name>
		<LookAt>
			<longitude>-2.902453991742746</longitude>
			<latitude>53.21290398950946</latitude>
			<altitude>17.07397800974926</altitude>
			<heading>-6.22906691077609</heading>
			<tilt>0.2081523707543951</tilt>
			<gx:fovy>35</gx:fovy>
			<range>133.2196029824991</range>
			<altitudeMode>absolute</altitudeMode>
		</LookAt>
		<styleUrl>#__managed_style_00483AB4E94208DE4B09</styleUrl>
		<Point>
			<coordinates>-2.902483210885791,53.21282341726073,32.17707593431088</coordinates>
		</Point>
	</Placemark>
	<Placemark id="0A3F0E180041E4D4F60C">
		<name>Oak6</name>
		<LookAt>
			<longitude>-2.902500820776167</longitude>
			<latitude>53.21254958180242</latitude>
			<altitude>30.04178871687713</altitude>
			<heading>-6.229104415347194</heading>
			<tilt>0.2081519444558469</tilt>
			<gx:fovy>35</gx:fovy>
			<range>120.2517129631087</range>
			<altitudeMode>absolute</altitudeMode>
		</LookAt>
		<styleUrl>#__managed_style_00483AB4E94208DE4B09</styleUrl>
		<Point>
			<coordinates>-2.902530981766892,53.21255114499343,31.37011161316265</coordinates>
		</Point>
	</Placemark>
	<Placemark id="0A00117DCA41E4D50D3C">
		<name>Oak7</name>
		<LookAt>
			<longitude>-2.902500820776167</longitude>
			<latitude>53.21254958180242</latitude>
			<altitude>30.04178871687713</altitude>
			<heading>-6.229104415347194</heading>
			<tilt>0.2081519444558469</tilt>
			<gx:fovy>35</gx:fovy>
			<range>120.2517129631087</range>
			<altitudeMode>absolute</altitudeMode>
		</LookAt>
		<styleUrl>#__managed_style_00483AB4E94208DE4B09</styleUrl>
		<Point>
			<coordinates>-2.902583810576798,53.21238964285296,24.84110814786095</coordinates>
		</Point>
	</Placemark>
	<Placemark id="00C1BB171741E4D52886">
		<name>Oak8</name>
		<LookAt>
			<longitude>-2.902450510205758</longitude>
			<latitude>53.21231463513391</latitude>
			<altitude>18.20972106932449</altitude>
			<heading>-6.229064120482979</heading>
			<tilt>0.2081523293793145</tilt>
			<gx:fovy>35</gx:fovy>
			<range>132.0838542586716</range>
			<altitudeMode>absolute</altitudeMode>
		</LookAt>
		<styleUrl>#__managed_style_00483AB4E94208DE4B09</styleUrl>
		<Point>
			<coordinates>-2.902590751251743,53.21229930019896,30.67505009129795</coordinates>
		</Point>
	</Placemark>
	<Placemark id="08075ADA7241E4D544B9">
		<name>Oak8</name>
		<LookAt>
			<longitude>-2.902435207002733</longitude>
			<latitude>53.21223073251583</latitude>
			<altitude>19.15752868473615</altitude>
			<heading>-6.229051865755039</heading>
			<tilt>0.2081522978218363</tilt>
			<gx:fovy>35</gx:fovy>
			<range>131.1360410992529</range>
			<altitudeMode>absolute</altitudeMode>
		</LookAt>
		<styleUrl>#__managed_style_00483AB4E94208DE4B09</styleUrl>
		<Point>
			<coordinates>-2.902736321407863,53.21198317016966,30.56306583090104</coordinates>
		</Point>
	</Placemark>
	<Placemark id="0738B5B9A141E4D56239">
		<name>Oak9</name>
		<LookAt>
			<longitude>-2.902499126179824</longitude>
			<latitude>53.21190904310951</latitude>
			<altitude>19.72524539823234</altitude>
			<heading>-6.229103054294743</heading>
			<tilt>0.2081522759418886</tilt>
			<gx:fovy>35</gx:fovy>
			<range>130.568317391735</range>
			<altitudeMode>absolute</altitudeMode>
		</LookAt>
		<styleUrl>#__managed_style_00483AB4E94208DE4B09</styleUrl>
		<Point>
			<coordinates>-2.902762045239078,53.21188861729267,30.7640180335697</coordinates>
		</Point>
	</Placemark>
	<Placemark id="0A5E3AA46241E4D58D24">
		<name>Oak10</name>
		<LookAt>
			<longitude>-2.902948279528568</longitude>
			<latitude>53.21171570197149</latitude>
			<altitude>26.07710486521241</altitude>
			<heading>-6.22946276032503</heading>
			<tilt>0.2081520630412626</tilt>
			<gx:fovy>35</gx:fovy>
			<range>124.2164267543922</range>
			<altitudeMode>absolute</altitudeMode>
		</LookAt>
		<styleUrl>#__managed_style_00483AB4E94208DE4B09</styleUrl>
		<Point>
			<coordinates>-2.903047758876757,53.21165999664634,30.37999153737037</coordinates>
		</Point>
	</Placemark>
	<Placemark id="068BB7B8F441E4D5A50C">
		<name>Oak11</name>
		<LookAt>
			<longitude>-2.902948279528568</longitude>
			<latitude>53.21171570197149</latitude>
			<altitude>26.07710486521241</altitude>
			<heading>-6.22946276032503</heading>
			<tilt>0.2081520630412626</tilt>
			<gx:fovy>35</gx:fovy>
			<range>124.2164267543922</range>
			<altitudeMode>absolute</altitudeMode>
		</LookAt>
		<styleUrl>#__managed_style_00483AB4E94208DE4B09</styleUrl>
		<Point>
			<coordinates>-2.903340424125412,53.21157351354389,29.30406315347999</coordinates>
		</Point>
	</Placemark>
	<Placemark id="02A2D80F0E41E4D5F6B7">
		<name>Oak12</name>
		<LookAt>
			<longitude>-2.903426881908355</longitude>
			<latitude>53.21153653840386</latitude>
			<altitude>32.70423913153743</altitude>
			<heading>-6.228947560517322</heading>
			<tilt>0.2081529413514626</tilt>
			<gx:fovy>35</gx:fovy>
			<range>151.4217597981042</range>
			<altitudeMode>absolute</altitudeMode>
		</LookAt>
		<styleUrl>#__managed_style_00483AB4E94208DE4B09</styleUrl>
		<Point>
			<coordinates>-2.903499951363692,53.21152005173493,35.67578333191555</coordinates>
		</Point>
	</Placemark>
	<Placemark id="0C213BB1CA41E4FD9237">
		<name>Car park</name>
		<LookAt>
			<longitude>-2.899853175486047</longitude>
			<latitude>53.21136675527425</latitude>
			<altitude>20.31785430455734</altitude>
			<heading>-6.494468004958738</heading>
			<tilt>0.2081608414627172</tilt>
			<gx:fovy>35</gx:fovy>
			<range>393.7830093786033</range>
			<altitudeMode>absolute</altitudeMode>
		</LookAt>
		<styleUrl>#__managed_style_0882A904EB4208DE4B0B</styleUrl>
		<Polygon>
			<outerBoundaryIs>
				<LinearRing>
					<coordinates>
						-2.900215562236694,53.21097783590098,0 -2.899433974288432,53.21125493479516,0 -2.89969177955151,53.21149205519632,0 -2.899377060943775,53.21161690726103,0 -2.899497102084013,53.21172018909389,0 -2.899249702370388,53.211824247009,0 -2.899522438840836,53.21208373468397,0 -2.899957722472824,53.2119109708184,0 -2.899734941144359,53.21169335434572,0 -2.899994328585866,53.21159327197429,0 -2.900450692343529,53.21202770770836,0 -2.899705684308556,53.21228746176192,0 -2.899790170331114,53.21235797288011,0 -2.900812476108595,53.21195582503159,0 -2.900963828398446,53.21211010395068,0 -2.901167423547026,53.21211343204746,0 -2.901515157199409,53.21199065907729,0 -2.901239700307173,53.2116613558069,0 -2.900642555332296,53.21189556608195,0 -2.900667330373274,53.21192249028235,0 -2.900532405228897,53.21196698535167,0 -2.900509491105379,53.21190664845673,0 -2.900705539315684,53.21183061177422,0 -2.901255048191027,53.21161248750106,0 -2.901369784679587,53.21158574016917,0 -2.901452683145409,53.21160413874728,0 -2.90151167618805,53.21164306221935,0 -2.901585693015757,53.21171647171992,0 -2.901700902208872,53.21182083610532,0 -2.901678780804015,53.21191768628664,0 -2.901720531076324,53.2119722191694,0 -2.9017910823216,53.21200813618719,0 -2.901851142336981,53.21203044170334,0 -2.901824391754082,53.21207991275657,0 -2.902325719058742,53.21219974143855,0 -2.902390044295858,53.21213368119515,0 -2.902309057956324,53.21210552725053,0 -2.902358153523935,53.21204257576308,0 -2.902123208806104,53.21198632601937,0 -2.902136489051328,53.21194476985472,0 -2.902195722061535,53.21191450153209,0 -2.90227219993386,53.21189488825495,0 -2.902208660324935,53.21173686398803,0 -2.902062157223335,53.2117420291763,0 -2.901988614152891,53.21173016746387,0 -2.901889219409706,53.21171817423026,0 -2.901760872788865,53.21170110938781,0 -2.90158368044131,53.21155154775649,0 -2.901524879702872,53.21157962500528,0 -2.901472294246522,53.21155466019903,0 -2.901467818162589,53.21151231471159,0 -2.901214985508865,53.21158435787092,0 -2.90103367367303,53.21159461553318,0 -2.90090220457802,53.2114462940286,0 -2.900992522506626,53.21139400398728,0 -2.90108195157007,53.21131643720268,0 -2.901124878344056,53.21123006202851,0 -2.901164580858382,53.21114631300854,0 -2.901148028639616,53.21103777535765,0 -2.901128424049984,53.21095568079593,0 -2.901066713197287,53.21088368218506,0 -2.900381208344245,53.21113575438382,0 -2.900215562236694,53.21097783590098,0 
					</coordinates>
				</LinearRing>
			</outerBoundaryIs>
		</Polygon>
	</Placemark>
	<Placemark id="009CB8C2B041E5F979FC">
		<name>Oak13</name>
		<LookAt>
			<longitude>-2.90199123815134</longitude>
			<latitude>53.21229168641216</latitude>
			<altitude>24.10141852199366</altitude>
			<heading>-6.229831745453173</heading>
			<tilt>0.2081568578637212</tilt>
			<gx:fovy>35</gx:fovy>
			<range>246.303573810801</range>
			<altitudeMode>absolute</altitudeMode>
		</LookAt>
		<styleUrl>#__managed_style_00483AB4E94208DE4B09</styleUrl>
		<Point>
			<coordinates>-2.902616970340783,53.21220012335106,30.94236085728614</coordinates>
		</Point>
	</Placemark>
	<Placemark id="0D3E5B203A41E5F9A6E8">
		<name>Oak14</name>
		<LookAt>
			<longitude>-2.901908177046986</longitude>
			<latitude>53.21230881066062</latitude>
			<altitude>18.1888481642081</altitude>
			<heading>-6.229832483517065</heading>
			<tilt>0.2081619533797477</tilt>
			<gx:fovy>35</gx:fovy>
			<range>402.2844137581706</range>
			<altitudeMode>absolute</altitudeMode>
		</LookAt>
		<styleUrl>#__managed_style_00483AB4E94208DE4B09</styleUrl>
		<Point>
			<coordinates>-2.902627743655254,53.21212098550448,31.73568098092514</coordinates>
		</Point>
	</Placemark>
	<Placemark id="0E0C1A6ECF41E5FA1CC9">
		<name>Oak16</name>
		<LookAt>
			<longitude>-2.903917997506155</longitude>
			<latitude>53.2121147086668</latitude>
			<altitude>14.72961893081976</altitude>
			<heading>-6.230489227312403</heading>
			<tilt>0.2081760868491317</tilt>
			<gx:fovy>35</gx:fovy>
			<range>835.1589939929545</range>
			<altitudeMode>absolute</altitudeMode>
		</LookAt>
		<styleUrl>#__managed_style_00483AB4E94208DE4B09</styleUrl>
		<Point>
			<coordinates>-2.9037191208268,53.21147789128506,25.78102464938219</coordinates>
		</Point>
	</Placemark>
	<Placemark id="0F399BDFD641E5FB0806">
		<name>Oak15</name>
		<LookAt>
			<longitude>-2.903722759482537</longitude>
			<latitude>53.21298747697838</latitude>
			<altitude>25.15995474881055</altitude>
			<heading>-6.229744173829888</heading>
			<tilt>0.2081690880093143</tilt>
			<gx:fovy>35</gx:fovy>
			<range>621.3274223059852</range>
			<altitudeMode>absolute</altitudeMode>
		</LookAt>
		<styleUrl>#__managed_style_00483AB4E94208DE4B09</styleUrl>
		<Point>
			<coordinates>-2.902507951119063,53.21270714792458,30.35359356307865</coordinates>
		</Point>
	</Placemark>
	<Placemark id="0E4EED443D41E5FB3D4C">
		<name>Beech1</name>
		<LookAt>
			<longitude>-2.90282896555081</longitude>
			<latitude>53.2132660265749</latitude>
			<altitude>25.79335120376298</altitude>
			<heading>-6.229672485188712</heading>
			<tilt>0.2081550235837792</tilt>
			<gx:fovy>35</gx:fovy>
			<range>190.9288702444065</range>
			<altitudeMode>absolute</altitudeMode>
		</LookAt>
		<styleUrl>#__managed_style_00483AB4E94208DE4B09</styleUrl>
		<Point>
			<coordinates>-2.902574033648992,53.21325450323095,30.33986142819567</coordinates>
		</Point>
	</Placemark>
	<Placemark id="0303E835AA41E5FB6181">
		<name>Beech2</name>
		<LookAt>
			<longitude>-2.90282896555081</longitude>
			<latitude>53.2132660265749</latitude>
			<altitude>25.79335120376298</altitude>
			<heading>-6.229672485188712</heading>
			<tilt>0.2081550235837792</tilt>
			<gx:fovy>35</gx:fovy>
			<range>190.9288702444065</range>
			<altitudeMode>absolute</altitudeMode>
		</LookAt>
		<styleUrl>#__managed_style_00483AB4E94208DE4B09</styleUrl>
		<Point>
			<coordinates>-2.90268629985782,53.2134381102525,32.54689920922267</coordinates>
		</Point>
	</Placemark>
	<Placemark id="022538180741E5FBD590">
		<name>Oak23</name>
		<LookAt>
			<longitude>-2.902981512876441</longitude>
			<latitude>53.21328467833209</latitude>
			<altitude>20.67695451773076</altitude>
			<heading>-6.231912640345334</heading>
			<tilt>0.2081658601278376</tilt>
			<gx:fovy>35</gx:fovy>
			<range>522.9805108338041</range>
			<altitudeMode>absolute</altitudeMode>
		</LookAt>
		<styleUrl>#__managed_style_00483AB4E94208DE4B09</styleUrl>
		<Point>
			<coordinates>-2.902306992751037,53.2130832497179,27.55456090244934</coordinates>
		</Point>
	</Placemark>
	<Placemark id="0D7AAF97F141E5FBF216">
		<name>Oak17</name>
		<LookAt>
			<longitude>-2.902981512876441</longitude>
			<latitude>53.21328467833209</latitude>
			<altitude>20.67695451773076</altitude>
			<heading>-6.231912640345334</heading>
			<tilt>0.2081658601278376</tilt>
			<gx:fovy>35</gx:fovy>
			<range>522.9805108338041</range>
			<altitudeMode>absolute</altitudeMode>
		</LookAt>
		<styleUrl>#__managed_style_00483AB4E94208DE4B09</styleUrl>
		<Point>
			<coordinates>-2.902483916916045,53.21310649156975,29.30652813870409</coordinates>
		</Point>
	</Placemark>
	<Placemark id="05EC9CC6F841E5FC2064">
		<name>Oak18</name>
		<LookAt>
			<longitude>-2.902981512876441</longitude>
			<latitude>53.21328467833209</latitude>
			<altitude>20.67695451773076</altitude>
			<heading>-6.231912640345334</heading>
			<tilt>0.2081658601278376</tilt>
			<gx:fovy>35</gx:fovy>
			<range>522.9805108338041</range>
			<altitudeMode>absolute</altitudeMode>
		</LookAt>
		<styleUrl>#__managed_style_00483AB4E94208DE4B09</styleUrl>
		<Point>
			<coordinates>-2.902766242637107,53.2131420723819,34.55476547908182</coordinates>
		</Point>
	</Placemark>
	<Placemark id="0F0FE68BA641E5FC75C6">
		<name>Oak21</name>
		<LookAt>
			<longitude>-2.903639908749922</longitude>
			<latitude>53.21333581649766</latitude>
			<altitude>15.83948412573345</altitude>
			<heading>-6.232353910117567</heading>
			<tilt>0.2081724281712461</tilt>
			<gx:fovy>35</gx:fovy>
			<range>724.0522578108357</range>
			<altitudeMode>absolute</altitudeMode>
		</LookAt>
		<styleUrl>#__managed_style_00483AB4E94208DE4B09</styleUrl>
		<Point>
			<coordinates>-2.903325559043617,53.21301876963101,30.63427113241559</coordinates>
		</Point>
	</Placemark>
	<Placemark id="01EEADCC8941E5FC8EE8">
		<name>Oak22</name>
		<LookAt>
			<longitude>-2.903639908749922</longitude>
			<latitude>53.21333581649766</latitude>
			<altitude>15.83948412573345</altitude>
			<heading>-6.232353910117567</heading>
			<tilt>0.2081724281712461</tilt>
			<gx:fovy>35</gx:fovy>
			<range>724.0522578108357</range>
			<altitudeMode>absolute</altitudeMode>
		</LookAt>
		<styleUrl>#__managed_style_00483AB4E94208DE4B09</styleUrl>
		<Point>
			<coordinates>-2.903513799830775,53.2129581108177,27.84551362613409</coordinates>
		</Point>
	</Placemark>
	<Placemark id="0A95543C9541E5FD8300">
		<name>Oak19</name>
		<LookAt>
			<longitude>-2.903326916159367</longitude>
			<latitude>53.21302232645087</latitude>
			<altitude>31.11413483897017</altitude>
			<heading>-6.231913107843799</heading>
			<tilt>0.2081717430995333</tilt>
			<gx:fovy>35</gx:fovy>
			<range>720.3933029103064</range>
			<altitudeMode>absolute</altitudeMode>
		</LookAt>
		<styleUrl>#__managed_style_00483AB4E94208DE4B09</styleUrl>
		<Point>
			<coordinates>-2.902974648914852,53.21311016843507,32.92018969682149</coordinates>
		</Point>
	</Placemark>
	<Placemark id="0795CF304441E5FDA4CE">
		<name>Oak20</name>
		<LookAt>
			<longitude>-2.903326916159367</longitude>
			<latitude>53.21302232645087</latitude>
			<altitude>31.11413483897017</altitude>
			<heading>-6.231913107843799</heading>
			<tilt>0.2081717430995333</tilt>
			<gx:fovy>35</gx:fovy>
			<range>720.3933029103064</range>
			<altitudeMode>absolute</altitudeMode>
		</LookAt>
		<styleUrl>#__managed_style_00483AB4E94208DE4B09</styleUrl>
		<Point>
			<coordinates>-2.903133266722551,53.21306954432858,32.68083544448528</coordinates>
		</Point>
	</Placemark>
	<Placemark id="011BCC883A41E5FF030E">
		<name>Countess Mini Roundabout</name>
		<LookAt>
			<longitude>-2.897314547715219</longitude>
			<latitude>53.2113560531758</latitude>
			<altitude>19.69689540012834</altitude>
			<heading>-6.228480618840411</heading>
			<tilt>0.2081581452062015</tilt>
			<gx:fovy>35</gx:fovy>
			<range>304.4630079962735</range>
			<altitudeMode>absolute</altitudeMode>
		</LookAt>
		<styleUrl>#__managed_style_0882A904EB4208DE4B0B</styleUrl>
		<Polygon>
			<outerBoundaryIs>
				<LinearRing>
					<coordinates>
						-2.897103716155058,53.21135700892636,0 -2.897245186268792,53.21131112723965,0 -2.897233768712522,53.21121482818584,0 -2.897165073338122,53.21117351989098,0 -2.897020650346817,53.21117009062836,0 -2.896956366996044,53.21122009663579,0 -2.896935673743333,53.21129106101402,0 -2.897000955421366,53.21134723876816,0 -2.897103716155058,53.21135700892636,0 
					</coordinates>
				</LinearRing>
			</outerBoundaryIs>
		</Polygon>
	</Placemark>
	<Placemark id="06C4BF87BD41E9AE5B00">
		<name>The Willows</name>
		<LookAt>
			<longitude>-2.905612773475048</longitude>
			<latitude>53.22325577778039</latitude>
			<altitude>6.028082703190099</altitude>
			<heading>-6.171365317792826</heading>
			<tilt>0.2081572066094603</tilt>
			<gx:fovy>35</gx:fovy>
			<range>251.40301651154</range>
			<altitudeMode>absolute</altitudeMode>
		</LookAt>
		<styleUrl>#__managed_style_0882A904EB4208DE4B0B</styleUrl>
		<Point>
			<coordinates>-2.904876118400348,53.22313660074063,14.50984615673563</coordinates>
		</Point>
	</Placemark>
	<Placemark id="03428EEAF141E9AFADA6">
		<name>Bache Hall</name>
		<LookAt>
			<longitude>-2.896823313136134</longitude>
			<latitude>53.20675481376438</latitude>
			<altitude>15.79736047988921</altitude>
			<heading>-6.163556003274115</heading>
			<tilt>0.2081611874423935</tilt>
			<gx:fovy>35</gx:fovy>
			<range>374.6077178762789</range>
			<altitudeMode>absolute</altitudeMode>
		</LookAt>
		<styleUrl>#__managed_style_0882A904EB4208DE4B0B</styleUrl>
		<Point>
			<coordinates>-2.896391858415094,53.20671351856225,20.14746476286984</coordinates>
		</Point>
	</Placemark>
	<Placemark id="02B1F133E8420450AEEB">
		<name>Surviving Lamp Post #1</name>
		<LookAt>
			<longitude>-2.902724166624453</longitude>
			<latitude>53.21368994457279</latitude>
			<altitude>29.89972933426449</altitude>
			<heading>-128.4290880256017</heading>
			<tilt>42.11384410728448</tilt>
			<gx:fovy>35</gx:fovy>
			<range>30.78455120804392</range>
			<altitudeMode>absolute</altitudeMode>
		</LookAt>
		<styleUrl>#__managed_style_190BC693A84208DE4B0C</styleUrl>
		<Point>
			<coordinates>-2.903004466142749,53.21361738225885,16.84998038397929</coordinates>
		</Point>
	</Placemark>
	<Placemark id="0CBE2E43EE42045209D7">
		<name>Surviving Lamp Post #2</name>
		<LookAt>
			<longitude>-2.904648524833415</longitude>
			<latitude>53.21526330868824</latitude>
			<altitude>14.63939935998708</altitude>
			<heading>-173.1388797858954</heading>
			<tilt>58.20497526817578</tilt>
			<gx:fovy>35</gx:fovy>
			<range>65.69475566292567</range>
			<altitudeMode>absolute</altitudeMode>
		</LookAt>
		<styleUrl>#__managed_style_190BC693A84208DE4B0C</styleUrl>
		<Point>
			<coordinates>-2.904759120554876,53.21532801387335,16.04894710214515</coordinates>
		</Point>
	</Placemark>
	<Placemark id="044E21FA49420453EDEC">
		<name>Willow1</name>
		<LookAt>
			<longitude>-2.905727082200553</longitude>
			<latitude>53.22262550195016</latitude>
			<altitude>6.150327354664138</altitude>
			<heading>-115.3324253501125</heading>
			<tilt>63.70699580374123</tilt>
			<gx:fovy>35</gx:fovy>
			<range>281.4732167241164</range>
			<altitudeMode>absolute</altitudeMode>
		</LookAt>
		<styleUrl>#__managed_style_063BDFA5D64208DE4B08</styleUrl>
		<Point>
			<coordinates>-2.904728547875698,53.22305454563619,17.42341167295024</coordinates>
		</Point>
	</Placemark>
	<Placemark id="0A3A753E7D4204544264">
		<name>Willow2</name>
		<LookAt>
			<longitude>-2.905727082200553</longitude>
			<latitude>53.22262550195016</latitude>
			<altitude>6.150327354664138</altitude>
			<heading>-115.3324253501125</heading>
			<tilt>63.70699580374123</tilt>
			<gx:fovy>35</gx:fovy>
			<range>281.4732167241164</range>
			<altitudeMode>absolute</altitudeMode>
		</LookAt>
		<styleUrl>#__managed_style_063BDFA5D64208DE4B08</styleUrl>
		<Point>
			<coordinates>-2.904749208995463,53.22297274652151,10.8519667171875</coordinates>
		</Point>
	</Placemark>
	<Placemark id="0A8617AA5F4204546494">
		<name>Willow3</name>
		<LookAt>
			<longitude>-2.905727082200553</longitude>
			<latitude>53.22262550195016</latitude>
			<altitude>6.150327354664138</altitude>
			<heading>-115.3324253501125</heading>
			<tilt>63.70699580374123</tilt>
			<gx:fovy>35</gx:fovy>
			<range>281.4732167241164</range>
			<altitudeMode>absolute</altitudeMode>
		</LookAt>
		<styleUrl>#__managed_style_063BDFA5D64208DE4B08</styleUrl>
		<Point>
			<coordinates>-2.904749208995463,53.22297274652151,10.85197093283973</coordinates>
		</Point>
	</Placemark>
	<Placemark id="01C8D132584204547F38">
		<name>Willow4</name>
		<LookAt>
			<longitude>-2.905727082200553</longitude>
			<latitude>53.22262550195016</latitude>
			<altitude>6.150327354664138</altitude>
			<heading>-115.3324253501125</heading>
			<tilt>63.70699580374123</tilt>
			<gx:fovy>35</gx:fovy>
			<range>281.4732167241164</range>
			<altitudeMode>absolute</altitudeMode>
		</LookAt>
		<styleUrl>#__managed_style_063BDFA5D64208DE4B08</styleUrl>
		<Point>
			<coordinates>-2.904723279689001,53.22281653571364,10.50354384431622</coordinates>
		</Point>
	</Placemark>
	<Placemark id="0370BA96384204549924">
		<name>Willow5</name>
		<LookAt>
			<longitude>-2.905727082200553</longitude>
			<latitude>53.22262550195016</latitude>
			<altitude>6.150327354664138</altitude>
			<heading>-115.3324253501125</heading>
			<tilt>63.70699580374123</tilt>
			<gx:fovy>35</gx:fovy>
			<range>281.4732167241164</range>
			<altitudeMode>absolute</altitudeMode>
		</LookAt>
		<styleUrl>#__managed_style_063BDFA5D64208DE4B08</styleUrl>
		<Point>
			<coordinates>-2.904748341139785,53.22269225529935,13.53489634031493</coordinates>
		</Point>
	</Placemark>
	<Placemark id="0BC2A98435420454B866">
		<name>Willow6</name>
		<LookAt>
			<longitude>-2.905727082200553</longitude>
			<latitude>53.22262550195016</latitude>
			<altitude>6.150327354664138</altitude>
			<heading>-115.3324253501125</heading>
			<tilt>63.70699580374123</tilt>
			<gx:fovy>35</gx:fovy>
			<range>281.4732167241164</range>
			<altitudeMode>absolute</altitudeMode>
		</LookAt>
		<styleUrl>#__managed_style_063BDFA5D64208DE4B08</styleUrl>
		<Point>
			<coordinates>-2.904709332850647,53.22261233254274,12.11392515248432</coordinates>
		</Point>
	</Placemark>
	<Placemark id="04B38D933F420454D3F4">
		<name>Willow7</name>
		<LookAt>
			<longitude>-2.905727082200553</longitude>
			<latitude>53.22262550195016</latitude>
			<altitude>6.150327354664138</altitude>
			<heading>-115.3324253501125</heading>
			<tilt>63.70699580374123</tilt>
			<gx:fovy>35</gx:fovy>
			<range>281.4732167241164</range>
			<altitudeMode>absolute</altitudeMode>
		</LookAt>
		<styleUrl>#__managed_style_063BDFA5D64208DE4B08</styleUrl>
		<Point>
			<coordinates>-2.904709332850647,53.22261233254274,10.94337644586427</coordinates>
		</Point>
	</Placemark>
	<Placemark id="08042A30EA420454F194">
		<name>Willow8</name>
		<LookAt>
			<longitude>-2.905727082200553</longitude>
			<latitude>53.22262550195016</latitude>
			<altitude>6.150327354664138</altitude>
			<heading>-115.3324253501125</heading>
			<tilt>63.70699580374123</tilt>
			<gx:fovy>35</gx:fovy>
			<range>281.4732167241164</range>
			<altitudeMode>absolute</altitudeMode>
		</LookAt>
		<styleUrl>#__managed_style_063BDFA5D64208DE4B08</styleUrl>
		<Point>
			<coordinates>-2.904662327583438,53.22248457023105,11.87356205354531</coordinates>
		</Point>
	</Placemark>
	<Placemark id="0A14E9C1424204569F8B">
		<name>Oak21</name>
		<LookAt>
			<longitude>-2.901167452519771</longitude>
			<latitude>53.21170121302088</latitude>
			<altitude>23.34126988459442</altitude>
			<heading>149.1281215712837</heading>
			<tilt>77.38106327729929</tilt>
			<gx:fovy>35</gx:fovy>
			<range>522.1782877647639</range>
			<altitudeMode>absolute</altitudeMode>
		</LookAt>
		<styleUrl>#__managed_style_190BC693A84208DE4B0C</styleUrl>
		<Point>
			<coordinates>-2.903725817733399,53.21298687893592,17.4242081652673</coordinates>
		</Point>
	</Placemark>
	<Placemark id="0B7ECBA97E4208DF0644">
		<name>Oak22</name>
		<LookAt>
			<longitude>-2.902854165015935</longitude>
			<latitude>53.21449167918751</latitude>
			<altitude>24.15548451786016</altitude>
			<heading>3.246984212854818</heading>
			<tilt>66.05389195420328</tilt>
			<gx:fovy>35</gx:fovy>
			<range>66.57983864967719</range>
			<altitudeMode>absolute</altitudeMode>
		</LookAt>
		<styleUrl>#__managed_style_00483AB4E94208DE4B09</styleUrl>
		<Point>
			<coordinates>-2.902840724796577,53.21451257754731,17.16303259216218</coordinates>
		</Point>
	</Placemark>
	<Placemark id="0B9BB7DA7B4208DF2E0E">
		<name>Oak23</name>
		<LookAt>
			<longitude>-2.902854165015935</longitude>
			<latitude>53.21449167918751</latitude>
			<altitude>24.15548451786016</altitude>
			<heading>3.246984212854818</heading>
			<tilt>66.05389195420328</tilt>
			<gx:fovy>35</gx:fovy>
			<range>66.57983864967719</range>
			<altitudeMode>absolute</altitudeMode>
		</LookAt>
		<styleUrl>#__managed_style_00483AB4E94208DE4B09</styleUrl>
		<Point>
			<coordinates>-2.902728565024727,53.21450430659883,17.37597119134564</coordinates>
		</Point>
	</Placemark>
	<Placemark id="0D8AF47AA44208DF670C">
		<name>Oak24</name>
		<LookAt>
			<longitude>-2.902843311188987</longitude>
			<latitude>53.21430354538263</latitude>
			<altitude>15.79112663932938</altitude>
			<heading>-76.33257871901466</heading>
			<tilt>53.86917421828523</tilt>
			<gx:fovy>35</gx:fovy>
			<range>96.94291680216338</range>
			<altitudeMode>absolute</altitudeMode>
		</LookAt>
		<styleUrl>#__managed_style_00483AB4E94208DE4B09</styleUrl>
		<Point>
			<coordinates>-2.902552747527656,53.21450061835385,20.03180133301635</coordinates>
		</Point>
	</Placemark>
	<Placemark id="0A28272C9D4208DF9FE8">
		<name>Oak25</name>
		<LookAt>
			<longitude>-2.902536112430046</longitude>
			<latitude>53.21452768897829</latitude>
			<altitude>33.38299689144019</altitude>
			<heading>-40.02245131652371</heading>
			<tilt>64.98967375689008</tilt>
			<gx:fovy>35</gx:fovy>
			<range>62.00427343286719</range>
			<altitudeMode>absolute</altitudeMode>
		</LookAt>
		<styleUrl>#__managed_style_00483AB4E94208DE4B09</styleUrl>
		<Point>
			<coordinates>-2.9026238321429,53.21478280687818,17.03868883305257</coordinates>
		</Point>
	</Placemark>
	<Placemark id="09DD07EF5C4208DFCEFB">
		<name>Oak26</name>
		<LookAt>
			<longitude>-2.903022542851629</longitude>
			<latitude>53.21473990409637</latitude>
			<altitude>23.65274878307312</altitude>
			<heading>25.78973613994504</heading>
			<tilt>64.54745011465167</tilt>
			<gx:fovy>35</gx:fovy>
			<range>55.03658295253446</range>
			<altitudeMode>absolute</altitudeMode>
		</LookAt>
		<styleUrl>#__managed_style_00483AB4E94208DE4B09</styleUrl>
		<Point>
			<coordinates>-2.902807001125182,53.21473350282105,17.47245714955386</coordinates>
		</Point>
	</Placemark>
	<Placemark id="0E61810D954208E0055C">
		<name>Oak27</name>
		<LookAt>
			<longitude>-2.902633773579624</longitude>
			<latitude>53.21493175994318</latitude>
			<altitude>16.6277401999637</altitude>
			<heading>-66.94728610855663</heading>
			<tilt>55.745700632932</tilt>
			<gx:fovy>35</gx:fovy>
			<range>62.13092742456865</range>
			<altitudeMode>absolute</altitudeMode>
		</LookAt>
		<styleUrl>#__managed_style_00483AB4E94208DE4B09</styleUrl>
		<Point>
			<coordinates>-2.902684707837605,53.21486653663439,18.94269973475197</coordinates>
		</Point>
	</Placemark>
	<Placemark id="055D3F502B4208E072E7">
		<name>Oak28</name>
		<LookAt>
			<longitude>-2.901946274575118</longitude>
			<latitude>53.2153895298825</latitude>
			<altitude>14.5282382948104</altitude>
			<heading>72.71844534669843</heading>
			<tilt>50.71183803799046</tilt>
			<gx:fovy>35</gx:fovy>
			<range>319.8685556731289</range>
			<altitudeMode>absolute</altitudeMode>
		</LookAt>
		<styleUrl>#__managed_style_00483AB4E94208DE4B09</styleUrl>
		<Point>
			<coordinates>-2.902724182068389,53.21491602872914,30.07864852959255</coordinates>
		</Point>
	</Placemark>
	<Placemark id="0722F88F114208E099FB">
		<name>Oak29</name>
		<LookAt>
			<longitude>-2.901946274575118</longitude>
			<latitude>53.2153895298825</latitude>
			<altitude>14.5282382948104</altitude>
			<heading>72.71844534669843</heading>
			<tilt>50.71183803799046</tilt>
			<gx:fovy>35</gx:fovy>
			<range>319.8685556731289</range>
			<altitudeMode>absolute</altitudeMode>
		</LookAt>
		<styleUrl>#__managed_style_00483AB4E94208DE4B09</styleUrl>
		<Point>
			<coordinates>-2.902825051350526,53.21499325141587,25.43725905933382</coordinates>
		</Point>
	</Placemark>
	<Placemark id="0180EF7D554208E0B560">
		<name>Oak30</name>
		<LookAt>
			<longitude>-2.901946274575118</longitude>
			<latitude>53.2153895298825</latitude>
			<altitude>14.5282382948104</altitude>
			<heading>72.71844534669843</heading>
			<tilt>50.71183803799046</tilt>
			<gx:fovy>35</gx:fovy>
			<range>319.8685556731289</range>
			<altitudeMode>absolute</altitudeMode>
		</LookAt>
		<styleUrl>#__managed_style_00483AB4E94208DE4B09</styleUrl>
		<Point>
			<coordinates>-2.902715057607522,53.21510076180343,26.83241756101319</coordinates>
		</Point>
	</Placemark>
	<Placemark id="0476EE0A3D4208E1EDDF">
		<name>Pine14</name>
		<LookAt>
			<longitude>-2.901082788330402</longitude>
			<latitude>53.21437092810528</latitude>
			<altitude>21.94906184010329</altitude>
			<heading>-113.8375540036584</heading>
			<tilt>50.7100396799452</tilt>
			<gx:fovy>35</gx:fovy>
			<range>61.49283652539454</range>
			<altitudeMode>absolute</altitudeMode>
		</LookAt>
		<styleUrl>#__managed_style_00483AB4E94208DE4B09</styleUrl>
		<Point>
			<coordinates>-2.901156575209038,53.21438780362509,16.44252721693527</coordinates>
		</Point>
	</Placemark>
</Document>
</kml>
