<?xml version="1.0" encoding="UTF-8"?>
<kml xmlns="http://www.opengis.net/kml/2.2" xmlns:gx="http://www.google.com/kml/ext/2.2" xmlns:kml="http://www.opengis.net/kml/2.2" xmlns:atom="http://www.w3.org/2005/Atom">
<Document id="1jXu49Oe3iXWoHLAS1GdS8lUhKcpg8cUk">
	<name>1829</name>
	<gx:CascadingStyle kml:id="__managed_style_03CA15A57741E4B0ED2F_normal">
		<Style>
			<IconStyle>
				<Icon>
					<href>https://earth.google.com/earth/document/icon?color=1976d2&amp;id=2370&amp;scale=4</href>
				</Icon>
				<hotSpot x="64" y="128" xunits="pixels" yunits="insetPixels"/>
			</IconStyle>
			<LabelStyle>
			</LabelStyle>
			<LineStyle>
				<color>ff2dc0fb</color>
				<width>4</width>
			</LineStyle>
			<PolyStyle>
				<color>40ffffff</color>
			</PolyStyle>
			<BalloonStyle>
			</BalloonStyle>
		</Style>
	</gx:CascadingStyle>
	<gx:CascadingStyle kml:id="__managed_style_0DB465F3E041E4B03AD8_highlight">
		<Style>
			<IconStyle>
				<scale>1.2</scale>
				<Icon>
					<href>https://earth.google.com/earth/document/icon?color=1976d2&amp;id=2000&amp;scale=4</href>
				</Icon>
				<hotSpot x="64" y="128" xunits="pixels" yunits="insetPixels"/>
			</IconStyle>
			<LabelStyle>
			</LabelStyle>
			<LineStyle>
				<color>ff2dc0fb</color>
				<width>6</width>
			</LineStyle>
			<PolyStyle>
				<color>40ffffff</color>
			</PolyStyle>
			<BalloonStyle>
			</BalloonStyle>
		</Style>
	</gx:CascadingStyle>
	<gx:CascadingStyle kml:id="__managed_style_0DB465F3E041E4B03AD8_normal">
		<Style>
			<IconStyle>
				<Icon>
					<href>https://earth.google.com/earth/document/icon?color=1976d2&amp;id=2000&amp;scale=4</href>
				</Icon>
				<hotSpot x="64" y="128" xunits="pixels" yunits="insetPixels"/>
			</IconStyle>
			<LabelStyle>
			</LabelStyle>
			<LineStyle>
				<color>ff2dc0fb</color>
				<width>4</width>
			</LineStyle>
			<PolyStyle>
				<color>40ffffff</color>
			</PolyStyle>
			<BalloonStyle>
			</BalloonStyle>
		</Style>
	</gx:CascadingStyle>
	<gx:CascadingStyle kml:id="__managed_style_15D919146B41E4B03AD8_highlight">
		<Style>
			<IconStyle>
				<scale>1.2</scale>
				<Icon>
					<href>https://earth.google.com/earth/document/icon?color=1976d2&amp;id=2000&amp;scale=4</href>
				</Icon>
				<hotSpot x="64" y="128" xunits="pixels" yunits="insetPixels"/>
			</IconStyle>
			<LabelStyle>
			</LabelStyle>
			<LineStyle>
				<color>ff2dc0fb</color>
				<width>6</width>
			</LineStyle>
			<PolyStyle>
				<color>40ffffff</color>
			</PolyStyle>
			<BalloonStyle>
			</BalloonStyle>
		</Style>
	</gx:CascadingStyle>
	<gx:CascadingStyle kml:id="__managed_style_0FDCC7BCE941E4B03AD9_highlight">
		<Style>
			<IconStyle>
				<scale>1.2</scale>
				<Icon>
					<href>https://earth.google.com/earth/document/icon?color=fbc02d&amp;id=2000&amp;scale=4</href>
				</Icon>
				<hotSpot x="64" y="128" xunits="pixels" yunits="insetPixels"/>
			</IconStyle>
			<LabelStyle>
			</LabelStyle>
			<LineStyle>
				<color>ff2dc0fb</color>
				<width>6</width>
			</LineStyle>
			<PolyStyle>
				<color>40ffffff</color>
			</PolyStyle>
			<BalloonStyle>
			</BalloonStyle>
		</Style>
	</gx:CascadingStyle>
	<StyleMap id="__managed_style_0FDCC7BCE941E4B03AD9">
		<Pair>
			<key>normal</key>
			<styleUrl>#__managed_style_0FDCC7BCE941E4B03AD9_normal</styleUrl>
		</Pair>
		<Pair>
			<key>highlight</key>
			<styleUrl>#__managed_style_0FDCC7BCE941E4B03AD9_highlight</styleUrl>
		</Pair>
	</StyleMap>
	<gx:CascadingStyle kml:id="__managed_style_0FDCC7BCE941E4B03AD9_normal">
		<Style>
			<IconStyle>
				<Icon>
					<href>https://earth.google.com/earth/document/icon?color=fbc02d&amp;id=2000&amp;scale=4</href>
				</Icon>
				<hotSpot x="64" y="128" xunits="pixels" yunits="insetPixels"/>
			</IconStyle>
			<LabelStyle>
			</LabelStyle>
			<LineStyle>
				<color>ff2dc0fb</color>
				<width>4</width>
			</LineStyle>
			<PolyStyle>
				<color>40ffffff</color>
			</PolyStyle>
			<BalloonStyle>
			</BalloonStyle>
		</Style>
	</gx:CascadingStyle>
	<gx:CascadingStyle kml:id="__managed_style_15D919146B41E4B03AD8_normal">
		<Style>
			<IconStyle>
				<Icon>
					<href>https://earth.google.com/earth/document/icon?color=1976d2&amp;id=2000&amp;scale=4</href>
				</Icon>
				<hotSpot x="64" y="128" xunits="pixels" yunits="insetPixels"/>
			</IconStyle>
			<LabelStyle>
			</LabelStyle>
			<LineStyle>
				<color>ff2dc0fb</color>
				<width>4</width>
			</LineStyle>
			<PolyStyle>
				<color>40ffffff</color>
			</PolyStyle>
			<BalloonStyle>
			</BalloonStyle>
		</Style>
	</gx:CascadingStyle>
	<gx:CascadingStyle kml:id="__managed_style_2D72D889B241E4B03AD8_highlight">
		<styleUrl>https://earth.google.com/balloon_components/base/1.1.0.0/none_template.kml#main</styleUrl>
		<Style>
			<IconStyle>
				<scale>1.2</scale>
				<Icon>
					<href>https://earth.google.com/earth/document/icon?color=fbc02d&amp;id=2000&amp;scale=4</href>
				</Icon>
				<hotSpot x="64" y="128" xunits="pixels" yunits="insetPixels"/>
			</IconStyle>
			<LabelStyle>
			</LabelStyle>
			<LineStyle>
				<color>ff2dc0fb</color>
				<width>6</width>
			</LineStyle>
			<PolyStyle>
				<color>40ffffff</color>
			</PolyStyle>
			<BalloonStyle>
				<displayMode>hide</displayMode>
			</BalloonStyle>
		</Style>
	</gx:CascadingStyle>
	<StyleMap id="__managed_style_0DB465F3E041E4B03AD8">
		<Pair>
			<key>normal</key>
			<styleUrl>#__managed_style_0DB465F3E041E4B03AD8_normal</styleUrl>
		</Pair>
		<Pair>
			<key>highlight</key>
			<styleUrl>#__managed_style_0DB465F3E041E4B03AD8_highlight</styleUrl>
		</Pair>
	</StyleMap>
	<gx:CascadingStyle kml:id="__managed_style_2D72D889B241E4B03AD8_normal">
		<styleUrl>https://earth.google.com/balloon_components/base/1.1.0.0/none_template.kml#main</styleUrl>
		<Style>
			<IconStyle>
				<Icon>
					<href>https://earth.google.com/earth/document/icon?color=fbc02d&amp;id=2000&amp;scale=4</href>
				</Icon>
				<hotSpot x="64" y="128" xunits="pixels" yunits="insetPixels"/>
			</IconStyle>
			<LabelStyle>
			</LabelStyle>
			<LineStyle>
				<color>ff2dc0fb</color>
				<width>4</width>
			</LineStyle>
			<PolyStyle>
				<color>40ffffff</color>
			</PolyStyle>
			<BalloonStyle>
				<displayMode>hide</displayMode>
			</BalloonStyle>
		</Style>
	</gx:CascadingStyle>
	<StyleMap id="__managed_style_2D72D889B241E4B03AD8">
		<Pair>
			<key>normal</key>
			<styleUrl>#__managed_style_2D72D889B241E4B03AD8_normal</styleUrl>
		</Pair>
		<Pair>
			<key>highlight</key>
			<styleUrl>#__managed_style_2D72D889B241E4B03AD8_highlight</styleUrl>
		</Pair>
	</StyleMap>
	<StyleMap id="__managed_style_324A19461441E4B03AD8">
		<Pair>
			<key>normal</key>
			<styleUrl>#__managed_style_324A19461441E4B03AD8_normal</styleUrl>
		</Pair>
		<Pair>
			<key>highlight</key>
			<styleUrl>#__managed_style_324A19461441E4B03AD8_highlight</styleUrl>
		</Pair>
	</StyleMap>
	<StyleMap id="__managed_style_15D919146B41E4B03AD8">
		<Pair>
			<key>normal</key>
			<styleUrl>#__managed_style_15D919146B41E4B03AD8_normal</styleUrl>
		</Pair>
		<Pair>
			<key>highlight</key>
			<styleUrl>#__managed_style_15D919146B41E4B03AD8_highlight</styleUrl>
		</Pair>
	</StyleMap>
	<gx:CascadingStyle kml:id="__managed_style_03CA15A57741E4B0ED2F_highlight">
		<Style>
			<IconStyle>
				<scale>1.2</scale>
				<Icon>
					<href>https://earth.google.com/earth/document/icon?color=1976d2&amp;id=2370&amp;scale=4</href>
				</Icon>
				<hotSpot x="64" y="128" xunits="pixels" yunits="insetPixels"/>
			</IconStyle>
			<LabelStyle>
			</LabelStyle>
			<LineStyle>
				<color>ff2dc0fb</color>
				<width>6</width>
			</LineStyle>
			<PolyStyle>
				<color>40ffffff</color>
			</PolyStyle>
			<BalloonStyle>
			</BalloonStyle>
		</Style>
	</gx:CascadingStyle>
	<gx:CascadingStyle kml:id="__managed_style_324A19461441E4B03AD8_highlight">
		<Style>
			<IconStyle>
				<scale>1.2</scale>
				<Icon>
					<href>https://earth.google.com/earth/document/icon?color=fbc02d&amp;id=2000&amp;scale=4</href>
				</Icon>
				<hotSpot x="64" y="128" xunits="pixels" yunits="insetPixels"/>
			</IconStyle>
			<LabelStyle>
			</LabelStyle>
			<LineStyle>
				<color>ff2dc0fb</color>
				<width>6</width>
			</LineStyle>
			<PolyStyle>
				<color>40ffffff</color>
			</PolyStyle>
			<BalloonStyle>
				<gx:displayMode>card</gx:displayMode>
			</BalloonStyle>
		</Style>
	</gx:CascadingStyle>
	<StyleMap id="__managed_style_03CA15A57741E4B0ED2F">
		<Pair>
			<key>normal</key>
			<styleUrl>#__managed_style_03CA15A57741E4B0ED2F_normal</styleUrl>
		</Pair>
		<Pair>
			<key>highlight</key>
			<styleUrl>#__managed_style_03CA15A57741E4B0ED2F_highlight</styleUrl>
		</Pair>
	</StyleMap>
	<gx:CascadingStyle kml:id="__managed_style_324A19461441E4B03AD8_normal">
		<Style>
			<IconStyle>
				<Icon>
					<href>https://earth.google.com/earth/document/icon?color=fbc02d&amp;id=2000&amp;scale=4</href>
				</Icon>
				<hotSpot x="64" y="128" xunits="pixels" yunits="insetPixels"/>
			</IconStyle>
			<LabelStyle>
			</LabelStyle>
			<LineStyle>
				<color>ff2dc0fb</color>
				<width>4</width>
			</LineStyle>
			<PolyStyle>
				<color>40ffffff</color>
			</PolyStyle>
			<BalloonStyle>
				<gx:displayMode>card</gx:displayMode>
			</BalloonStyle>
		</Style>
	</gx:CascadingStyle>
	<Placemark id="0051D3613341D9FE58A3">
		<gx:mid>/g/11s7bw38qh</gx:mid>
		<gx:fid>0x487add13b6060227:0x5e893e1367342860</gx:fid>
		<LookAt>
			<longitude>-2.90235045</longitude>
			<latitude>53.21248165</latitude>
			<altitude>0</altitude>
			<heading>0</heading>
			<tilt>0</tilt>
			<gx:fovy>35</gx:fovy>
			<range>289.7849571494569</range>
			<altitudeMode>relativeToGround</altitudeMode>
		</LookAt>
		<styleUrl>#__managed_style_324A19461441E4B03AD8</styleUrl>
		<Point>
			<altitudeMode>relativeToGround</altitudeMode>
			<coordinates>-2.9011964,53.2125148,0</coordinates>
		</Point>
	</Placemark>
	<Placemark id="03A3F5565841D9FEE1D4">
		<gx:mid>/g/11b6ggrw0v</gx:mid>
		<gx:fid>0x487add133c3178f5:0x596ea7fa67dabbd2</gx:fid>
		<LookAt>
			<longitude>-2.8988043</longitude>
			<latitude>53.21160320000001</latitude>
			<altitude>0</altitude>
			<heading>0</heading>
			<tilt>0</tilt>
			<gx:fovy>35</gx:fovy>
			<range>602.2949393709204</range>
			<altitudeMode>relativeToGround</altitudeMode>
		</LookAt>
		<styleUrl>#__managed_style_324A19461441E4B03AD8</styleUrl>
		<Point>
			<altitudeMode>relativeToGround</altitudeMode>
			<coordinates>-2.898804299999999,53.21160320000001,0</coordinates>
		</Point>
	</Placemark>
	<Placemark id="0C1E9B6A6F41D9FF1646">
		<name>The Old Church</name>
		<LookAt>
			<longitude>-2.900501</longitude>
			<latitude>53.2108814</latitude>
			<altitude>0</altitude>
			<heading>0</heading>
			<tilt>0</tilt>
			<gx:fovy>35</gx:fovy>
			<range>602.3058514247559</range>
			<altitudeMode>relativeToGround</altitudeMode>
		</LookAt>
		<styleUrl>#__managed_style_2D72D889B241E4B03AD8</styleUrl>
		<Point>
			<altitudeMode>relativeToGround</altitudeMode>
			<coordinates>-2.900501,53.21088139999999,0</coordinates>
		</Point>
	</Placemark>
	<Placemark id="06E3A6666741D9FF855C">
		<gx:mid>/g/11yrflrxfq</gx:mid>
		<gx:fid>0x487add001ab47e73:0x1b3e65bd72ba1f55</gx:fid>
		<LookAt>
			<longitude>-2.8995082</longitude>
			<latitude>53.2108487</latitude>
			<altitude>0</altitude>
			<heading>0</heading>
			<tilt>0</tilt>
			<gx:fovy>35</gx:fovy>
			<range>602.3063457761612</range>
			<altitudeMode>relativeToGround</altitudeMode>
		</LookAt>
		<styleUrl>#__managed_style_324A19461441E4B03AD8</styleUrl>
		<Point>
			<altitudeMode>relativeToGround</altitudeMode>
			<coordinates>-2.8995082,53.2108487,0</coordinates>
		</Point>
	</Placemark>
	<Placemark id="04885AE7C841DA002CA8">
		<name>Water tower</name>
		<LookAt>
			<longitude>-2.899776361598906</longitude>
			<latitude>53.2119851514169</latitude>
			<altitude>19.99583705215237</altitude>
			<heading>0</heading>
			<tilt>0</tilt>
			<gx:fovy>35</gx:fovy>
			<range>485.453427934408</range>
			<altitudeMode>absolute</altitudeMode>
		</LookAt>
		<styleUrl>#__managed_style_0FDCC7BCE941E4B03AD9</styleUrl>
		<Point>
			<coordinates>-2.900961415659128,53.21234432581698,21.23962646489052</coordinates>
		</Point>
	</Placemark>
	<Placemark id="087E990ACF41DA0282E7">
		<name>Upton grange</name>
		<LookAt>
			<longitude>-2.900676711624031</longitude>
			<latitude>53.21246214609381</latitude>
			<altitude>26.4639565373378</altitude>
			<heading>0</heading>
			<tilt>0</tilt>
			<gx:fovy>35</gx:fovy>
			<range>927.2594497272803</range>
			<altitudeMode>absolute</altitudeMode>
		</LookAt>
		<styleUrl>#__managed_style_15D919146B41E4B03AD8</styleUrl>
		<LineString>
			<coordinates>
				-2.896259167253046,53.21301016223878,0 -2.896652969453645,53.21302673695178,0 -2.897110899470321,53.21309375477447,0 -2.897633331094762,53.21325036365572,0 -2.898212041841766,53.21338457968385,0 -2.898708044066588,53.21350135621789,0 -2.899156082326041,53.21355150946442,0 -2.899752580908499,53.21351863628442,0 -2.900190919205169,53.21343557689564,0 -2.900499067765008,53.21337477123785,0 -2.900966777519653,53.21333626021024,0 -2.901444062056346,53.21335316021886,0 
			</coordinates>
		</LineString>
	</Placemark>
	<Placemark id="07062DACFF41DA02EC57">
		<name>Gerrard Crescent</name>
		<LookAt>
			<longitude>-2.900676711624031</longitude>
			<latitude>53.21246214609381</latitude>
			<altitude>26.4639565373378</altitude>
			<heading>0</heading>
			<tilt>0</tilt>
			<gx:fovy>35</gx:fovy>
			<range>927.2594497272803</range>
			<altitudeMode>absolute</altitudeMode>
		</LookAt>
		<styleUrl>#__managed_style_0DB465F3E041E4B03AD8</styleUrl>
		<LineString>
			<coordinates>
				-2.900499058444014,53.21335802183945,0 -2.900461670495097,53.21321799916089,0 -2.900882232909611,53.21250130650868,0 -2.901358708086544,53.21236703409656,0 -2.901620353642336,53.21237821657313,0 -2.901956702907276,53.21241737902921,0 -2.90219078401848,53.21246773338753,0 -2.902200831634399,53.21270291351235,0 -2.902228887735702,53.21282610171464,0 -2.902396943953663,53.21299960176093,0 
			</coordinates>
		</LineString>
	</Placemark>
	<Placemark id="0CE163903441DA036630">
		<name>Frost drive</name>
		<LookAt>
			<longitude>-2.899930719481442</longitude>
			<latitude>53.21278869221481</latitude>
			<altitude>19.32619860387955</altitude>
			<heading>0</heading>
			<tilt>0</tilt>
			<gx:fovy>35</gx:fovy>
			<range>286.0549413879563</range>
			<altitudeMode>absolute</altitudeMode>
		</LookAt>
		<styleUrl>#__managed_style_0DB465F3E041E4B03AD8</styleUrl>
		<LineString>
			<coordinates>
				-2.900859538234162,53.21249341029272,0 -2.900813102363153,53.21241811219297,0 -2.900709699544046,53.21235992759773,0 -2.90054584920395,53.2123415052643,0 -2.900408231594522,53.2123811578582,0 -2.899407183611915,53.21275614013653,0 -2.899504397536915,53.21284866137272,0 -2.899587592593399,53.21295136249925,0 -2.899693126713772,53.2131675339584,0 
			</coordinates>
		</LineString>
	</Placemark>
	<Placemark id="0D18A9404A41DA0516C3">
		<name>Vivienne Smith Lane</name>
		<LookAt>
			<longitude>-2.90068303124112</longitude>
			<latitude>53.21390925131339</latitude>
			<altitude>19.85392204572598</altitude>
			<heading>-6.219485729927987</heading>
			<tilt>38.78824246272017</tilt>
			<gx:fovy>35</gx:fovy>
			<range>581.8689500519395</range>
			<altitudeMode>absolute</altitudeMode>
		</LookAt>
		<styleUrl>#__managed_style_0DB465F3E041E4B03AD8</styleUrl>
		<LineString>
			<coordinates>
				-2.896309465258856,53.21130155758989,0 -2.897093375972248,53.2112718811965,0 -2.897416174429322,53.21143801815092,0 -2.897663317559424,53.21159509104915,0 -2.897996201058339,53.21192735586899,0 -2.898389019656778,53.21228701175996,0 -2.898631301217852,53.21249256019991,0 -2.899159023168131,53.21270186133145,0 -2.899427159494813,53.21282648064361,0 -2.899549438427332,53.21296828156222,0 -2.899692812556901,53.21327976341084,0 -2.899808869314286,53.21380144505647,0 -2.899699227724268,53.21426169273961,0 -2.89935345768237,53.21477331031782,0 
			</coordinates>
		</LineString>
	</Placemark>
	<Placemark id="0B6163721341DA188A40">
		<name>Upton Grange (Part2)</name>
		<LookAt>
			<longitude>-2.90063655796901</longitude>
			<latitude>53.21430873966184</latitude>
			<altitude>19.76654952411289</altitude>
			<heading>-6.225074285166345</heading>
			<tilt>0.2081673107321101</tilt>
			<gx:fovy>35</gx:fovy>
			<range>613.4425884245867</range>
			<altitudeMode>absolute</altitudeMode>
		</LookAt>
		<styleUrl>#__managed_style_0DB465F3E041E4B03AD8</styleUrl>
		<LineString>
			<coordinates>
				-2.898064909292112,53.21335794667125,0 -2.897958040635368,53.21352666483392,0 -2.897853989838809,53.2137365897461,0 -2.897855576269835,53.21387706928258,0 -2.897931194742189,53.21405322189376,0 -2.898123269099139,53.21412203627517,0 -2.898412186185714,53.21414756281419,0 -2.899004991444455,53.21415673410623,0 -2.8994221013126,53.21418111020551,0 -2.899883077325891,53.21427660092655,0 -2.900339598924615,53.21444694206281,0 -2.900622204989355,53.21453621268903,0 -2.901029144513752,53.21459144912511,0 -2.901377873629307,53.21459846138576,0 -2.901820370811653,53.2145734095397,0 -2.902174463271956,53.21454634627666,0 -2.902803912235368,53.21435306232906,0 -2.903059532798894,53.21459650962811,0 -2.903331607107327,53.21474161490756,0 
			</coordinates>
		</LineString>
	</Placemark>
	<Placemark id="046BC782E241DA19850E">
		<name>Ross Avenue</name>
		<LookAt>
			<longitude>-2.901257975892858</longitude>
			<latitude>53.21445489872933</latitude>
			<altitude>19.00179156047145</altitude>
			<heading>-6.226527497817838</heading>
			<tilt>0.2081611469182429</tilt>
			<gx:fovy>35</gx:fovy>
			<range>424.923365708819</range>
			<altitudeMode>absolute</altitudeMode>
		</LookAt>
		<styleUrl>#__managed_style_0DB465F3E041E4B03AD8</styleUrl>
		<LineString>
			<coordinates>
				-2.901425414782641,53.21337308156646,0 -2.901696883768792,53.2145731886279,0 
			</coordinates>
		</LineString>
	</Placemark>
	<Placemark id="0F9A3F6C6141DA19F49C">
		<name>Ross Avenue (Part 2)</name>
		<LookAt>
			<longitude>-2.901257975892858</longitude>
			<latitude>53.21445489872933</latitude>
			<altitude>19.00179156047145</altitude>
			<heading>-6.226527497817838</heading>
			<tilt>0.2081611469182429</tilt>
			<gx:fovy>35</gx:fovy>
			<range>424.923365708819</range>
			<altitudeMode>absolute</altitudeMode>
		</LookAt>
		<styleUrl>#__managed_style_0DB465F3E041E4B03AD8</styleUrl>
		<LineString>
			<coordinates>
				-2.900949260480604,53.21407941331306,0 -2.901570270285414,53.21402605969972,0 -2.901688610585034,53.21406181121066,0 -2.901988793707423,53.21403430404006,0 -2.902059767048287,53.21399873966258,0 -2.90236085247253,53.21395606196563,0 -2.902317049340239,53.21373192245804,0 
			</coordinates>
		</LineString>
	</Placemark>
	<Placemark id="0968FE6BB541DA1AA614">
		<name>Lockwood View</name>
		<LookAt>
			<longitude>-2.902597608612303</longitude>
			<latitude>53.21485828482277</latitude>
			<altitude>15.41926803620506</altitude>
			<heading>-6.227600389601516</heading>
			<tilt>0.2081612584353637</tilt>
			<gx:fovy>35</gx:fovy>
			<range>428.505834531461</range>
			<altitudeMode>absolute</altitudeMode>
		</LookAt>
		<styleUrl>#__managed_style_0DB465F3E041E4B03AD8</styleUrl>
		<LineString>
			<coordinates>
				-2.903393112418281,53.2150898362108,0 -2.903397879628907,53.21474678526541,0 -2.903672120201239,53.21460019572655,0 -2.90396517154417,53.21450628666847,0 -2.904452708070861,53.21496666630502,0 -2.903522082396588,53.21408529331612,0 
			</coordinates>
		</LineString>
	</Placemark>
	<Placemark id="0144DB6B8741DA2244E0">
		<name>Warren Lane</name>
		<LookAt>
			<longitude>-2.902555110468929</longitude>
			<latitude>53.21469274112156</latitude>
			<altitude>16.20325731583911</altitude>
			<heading>-6.227397547710986</heading>
			<tilt>0.2081686493632124</tilt>
			<gx:fovy>35</gx:fovy>
			<range>654.7784462267737</range>
			<altitudeMode>absolute</altitudeMode>
		</LookAt>
		<styleUrl>#__managed_style_0DB465F3E041E4B03AD8</styleUrl>
		<LineString>
			<coordinates>
				-2.902293492282884,53.21452072504102,0 -2.902424349451245,53.21469734500754,0 -2.902503913094558,53.2148813296962,0 -2.902442014423819,53.21501165821734,0 -2.902434964841152,53.2151543815612,0 -2.902319413967622,53.21528060981314,0 -2.902141217019575,53.21531599334375,0 -2.901904986158562,53.21528374226288,0 -2.90151569731684,53.21517095700523,0 -2.901207948840398,53.21510405451149,0 -2.901018148246276,53.215108502086,0 -2.90092046924293,53.2150399316677,0 -2.900923352526392,53.21487422079654,0 -2.900952235090912,53.21470293641391,0 -2.900990303493822,53.21459011129645,0 
			</coordinates>
		</LineString>
	</Placemark>
	<Placemark id="08F71CA0D541DAB7C470">
		<name>Valley drive</name>
		<LookAt>
			<longitude>-2.899875309953855</longitude>
			<latitude>53.21135730104133</latitude>
			<altitude>19.46816281319189</altitude>
			<heading>-6.225104371128376</heading>
			<tilt>0.208171667479291</tilt>
			<gx:fovy>35</gx:fovy>
			<range>747.8558377741138</range>
			<altitudeMode>absolute</altitudeMode>
		</LookAt>
		<styleUrl>#__managed_style_15D919146B41E4B03AD8</styleUrl>
		<LineString>
			<coordinates>
				-2.897322641137371,53.21136209038154,0 -2.897283083445968,53.21122528564083,0 -2.897286943025854,53.21104064282601,0 -2.897326490808193,53.21084900720159,0 -2.897382929060584,53.21066107321472,0 -2.897358914023865,53.21044676211101,0 -2.897298103225019,53.21023500446143,0 -2.897185169867443,53.21006713611605,0 
			</coordinates>
		</LineString>
	</Placemark>
	<Placemark id="0F749AC08141DAB88364">
		<name>Parsons Lane</name>
		<LookAt>
			<longitude>-2.898864082808895</longitude>
			<latitude>53.21097515169232</latitude>
			<altitude>19.56207925780586</altitude>
			<heading>-6.225102626508654</heading>
			<tilt>0.2081600811083635</tilt>
			<gx:fovy>35</gx:fovy>
			<range>393.2226213812828</range>
			<altitudeMode>absolute</altitudeMode>
		</LookAt>
		<styleUrl>#__managed_style_15D919146B41E4B03AD8</styleUrl>
		<LineString>
			<coordinates>
				-2.89736372205338,53.2107822302679,0 -2.89766068540436,53.2108290819826,0 -2.89784234533188,53.2108457642283,0 -2.898027825345598,53.21082647152078,0 -2.899212660443592,53.21050570669559,0 -2.899528058503591,53.21045890260287,0 -2.899682695052207,53.21045783161306,0 -2.899843779707652,53.21053961141882,0 -2.900387578174898,53.21110320750398,0 
			</coordinates>
		</LineString>
	</Placemark>
	<Placemark id="04B3571AF641DAB900F4">
		<name>Parsons Lane (Upton Lea)</name>
		<LookAt>
			<longitude>-2.898864082808895</longitude>
			<latitude>53.21097515169232</latitude>
			<altitude>19.56207925780586</altitude>
			<heading>-6.225102626508654</heading>
			<tilt>0.2081600811083635</tilt>
			<gx:fovy>35</gx:fovy>
			<range>393.2226213812828</range>
			<altitudeMode>absolute</altitudeMode>
		</LookAt>
		<styleUrl>#__managed_style_15D919146B41E4B03AD8</styleUrl>
		<LineString>
			<coordinates>
				-2.900111962925594,53.21078940534549,0 -2.900496349340962,53.21065030021202,0 -2.90067475779724,53.21061944822505,0 -2.901010750291148,53.21049208253291,0 -2.90117799784943,53.21065965211194,0 -2.901221790061996,53.21064013870497,0 -2.90149389290943,53.21088918742917,0 
			</coordinates>
		</LineString>
	</Placemark>
	<Placemark id="01E30572D241DAB9B676">
		<name>Parsons Lane (1829 Central)</name>
		<LookAt>
			<longitude>-2.899101565389635</longitude>
			<latitude>53.21145402336018</latitude>
			<altitude>28.59601037073294</altitude>
			<heading>-6.225292817229982</heading>
			<tilt>0.2081597826828605</tilt>
			<gx:fovy>35</gx:fovy>
			<range>384.1886189460274</range>
			<altitudeMode>absolute</altitudeMode>
		</LookAt>
		<styleUrl>#__managed_style_15D919146B41E4B03AD8</styleUrl>
		<LineString>
			<coordinates>
				-2.898791759622665,53.21061938970924,0 -2.899490346465749,53.21124680403193,0 -2.89956268843896,53.21127517983464,0 -2.899905770250081,53.21156995684809,0 -2.900071127421247,53.21160663871225,0 -2.900425194036963,53.21191351488383,0 
			</coordinates>
		</LineString>
	</Placemark>
	<Placemark id="09917D3B2C41DE42EC07">
		<name>Parsons Lane (North)</name>
		<LookAt>
			<longitude>-2.904014319651944</longitude>
			<latitude>53.21525045066313</latitude>
			<altitude>14.55924495592324</altitude>
			<heading>-6.229227371557046</heading>
			<tilt>0.208160206106154</tilt>
			<gx:fovy>35</gx:fovy>
			<range>398.2255062030891</range>
			<altitudeMode>absolute</altitudeMode>
		</LookAt>
		<styleUrl>#__managed_style_15D919146B41E4B03AD8</styleUrl>
		<LineString>
			<coordinates>
				-2.897999771320525,53.21410054613474,0 -2.898012511724097,53.21425776527607,0 -2.897984756842085,53.21436352393354,0 -2.897989615943446,53.21449354516925,0 -2.898057085797929,53.2146292570072,0 -2.89818325420696,53.21472560838141,0 -2.898464517714434,53.2147358652563,0 -2.898735100999682,53.21476345446982,0 -2.898992744674217,53.21484373181059,0 -2.899262890329173,53.21489827989112,0 -2.899710623825071,53.21492451329483,0 -2.900045906017271,53.21494280296685,0 -2.90044316417596,53.21498126973069,0 -2.900720488522517,53.21501828250831,0 -2.901014244006455,53.21519298434094,0 -2.901220302068777,53.21531577142713,0 -2.901523832369282,53.21544007609592,0 -2.901691386292208,53.21553572741011,0 -2.901979211149376,53.21560882618691,0 -2.9023273712319,53.21559564255112,0 -2.902716168906595,53.21552878360354,0 -2.903134884251541,53.21545660349197,0 -2.903482637499669,53.21545051103659,0 -2.903911729320134,53.21543462088491,0 -2.90426959876753,53.21541872491785,0 -2.904535445247221,53.21538206045087,0 -2.904812932726325,53.21536165017384,0 
			</coordinates>
		</LineString>
	</Placemark>
	<Placemark id="044C7547BE41E13B7457">
		<name>Caldecott Close</name>
		<LookAt>
			<longitude>-2.899270838686135</longitude>
			<latitude>53.21298861035022</latitude>
			<altitude>33.604823722267</altitude>
			<heading>-6.225810702929852</heading>
			<tilt>0.208156015590074</tilt>
			<gx:fovy>35</gx:fovy>
			<range>270.0874528146233</range>
			<altitudeMode>absolute</altitudeMode>
		</LookAt>
		<styleUrl>#__managed_style_15D919146B41E4B03AD8</styleUrl>
		<LineString>
			<coordinates>
				-2.897662534688146,53.21326016361508,0 -2.897752954418559,53.21310875598049,0 -2.897836304800525,53.21301098474764,0 -2.897965163176285,53.21294791350605,0 -2.898187558702699,53.21289590501128,0 -2.898457894986998,53.21285954788812,0 -2.898512818635337,53.21299246175613,0 -2.898869544021897,53.21293155641066,0 
			</coordinates>
		</LineString>
	</Placemark>
	<Placemark id="0584CDBE6841E4B0CC1B">
		<name>Pine1</name>
		<LookAt>
			<longitude>-2.899558511835037</longitude>
			<latitude>53.21339037215748</latitude>
			<altitude>34.52347115911969</altitude>
			<heading>-6.226417292821624</heading>
			<tilt>0.2081497562603729</tilt>
			<gx:fovy>35</gx:fovy>
			<range>78.92871293416647</range>
			<altitudeMode>absolute</altitudeMode>
		</LookAt>
		<styleUrl>#__managed_style_03CA15A57741E4B0ED2F</styleUrl>
		<Point>
			<coordinates>-2.899462848266841,53.21333437945022,37.49250189993169</coordinates>
		</Point>
	</Placemark>
	<Placemark id="0D061CDD2D41E4B112F4">
		<name>Pine2</name>
		<LookAt>
			<longitude>-2.899558511835037</longitude>
			<latitude>53.21339037215748</latitude>
			<altitude>34.52347115911969</altitude>
			<heading>-6.226417292821624</heading>
			<tilt>0.2081497562603729</tilt>
			<gx:fovy>35</gx:fovy>
			<range>78.92871293416647</range>
			<altitudeMode>absolute</altitudeMode>
		</LookAt>
		<styleUrl>#__managed_style_03CA15A57741E4B0ED2F</styleUrl>
		<Point>
			<coordinates>-2.899621577301846,53.21338387439018,35.47946022802977</coordinates>
		</Point>
	</Placemark>
	<Placemark id="01E8CB88FB41E4B25D89">
		<name>Pine3</name>
		<LookAt>
			<longitude>-2.900581981437705</longitude>
			<latitude>53.21362992618153</latitude>
			<altitude>29.18092669209446</altitude>
			<heading>-6.227150265704851</heading>
			<tilt>0.2081521991536897</tilt>
			<gx:fovy>35</gx:fovy>
			<range>126.1704722124159</range>
			<altitudeMode>absolute</altitudeMode>
		</LookAt>
		<styleUrl>#__managed_style_03CA15A57741E4B0ED2F</styleUrl>
		<Point>
			<coordinates>-2.900355604075859,53.21351028636158,32.65776581109127</coordinates>
		</Point>
	</Placemark>
	<Placemark id="01D1122B6C41E4B28D9B">
		<name>Pine4</name>
		<LookAt>
			<longitude>-2.900581981437705</longitude>
			<latitude>53.21362992618153</latitude>
			<altitude>29.18092669209446</altitude>
			<heading>-6.227150265704851</heading>
			<tilt>0.2081521991536897</tilt>
			<gx:fovy>35</gx:fovy>
			<range>126.1704722124159</range>
			<altitudeMode>absolute</altitudeMode>
		</LookAt>
		<styleUrl>#__managed_style_03CA15A57741E4B0ED2F</styleUrl>
		<Point>
			<coordinates>-2.900312794836286,53.21357516939867,39.12988516652521</coordinates>
		</Point>
	</Placemark>
	<Placemark id="041595120241E4B2AEE0">
		<name>Pine5</name>
		<LookAt>
			<longitude>-2.900581981437705</longitude>
			<latitude>53.21362992618153</latitude>
			<altitude>29.18092669209446</altitude>
			<heading>-6.227150265704512</heading>
			<tilt>0.2081521991536897</tilt>
			<gx:fovy>35</gx:fovy>
			<range>126.1704722124159</range>
			<altitudeMode>absolute</altitudeMode>
		</LookAt>
		<styleUrl>#__managed_style_03CA15A57741E4B0ED2F</styleUrl>
		<Point>
			<coordinates>-2.900316125924371,53.21364563728186,35.971519526475</coordinates>
		</Point>
	</Placemark>
	<Placemark id="09D0D3734141E4B2C858">
		<name>Pine6</name>
		<LookAt>
			<longitude>-2.900581981437705</longitude>
			<latitude>53.21362992618153</latitude>
			<altitude>29.18092669209446</altitude>
			<heading>-6.227150265705301</heading>
			<tilt>0.2081521991571915</tilt>
			<gx:fovy>35</gx:fovy>
			<range>126.1704722124159</range>
			<altitudeMode>absolute</altitudeMode>
		</LookAt>
		<styleUrl>#__managed_style_03CA15A57741E4B0ED2F</styleUrl>
		<Point>
			<coordinates>-2.900316353792806,53.21370914425854,39.25220333444722</coordinates>
		</Point>
	</Placemark>
	<Placemark id="0D4602E8A441E4B2E050">
		<name>Pine7</name>
		<LookAt>
			<longitude>-2.900581981437705</longitude>
			<latitude>53.21362992618153</latitude>
			<altitude>29.18092669209446</altitude>
			<heading>-6.227150265705301</heading>
			<tilt>0.2081521991571915</tilt>
			<gx:fovy>35</gx:fovy>
			<range>126.1704722124159</range>
			<altitudeMode>absolute</altitudeMode>
		</LookAt>
		<styleUrl>#__managed_style_03CA15A57741E4B0ED2F</styleUrl>
		<Point>
			<coordinates>-2.900203080148801,53.21374583871513,39.33182443728457</coordinates>
		</Point>
	</Placemark>
	<Placemark id="0D2F07566241E4B2F3B8">
		<name>Pine8</name>
		<LookAt>
			<longitude>-2.900581981437705</longitude>
			<latitude>53.21362992618153</latitude>
			<altitude>29.18092669209446</altitude>
			<heading>-6.227150265705301</heading>
			<tilt>0.2081521991571915</tilt>
			<gx:fovy>35</gx:fovy>
			<range>126.1704722124159</range>
			<altitudeMode>absolute</altitudeMode>
		</LookAt>
		<styleUrl>#__managed_style_03CA15A57741E4B0ED2F</styleUrl>
		<Point>
			<coordinates>-2.900191102517814,53.2138068166832,41.30698755440273</coordinates>
		</Point>
	</Placemark>
	<Placemark id="006C11163B41E4B30E39">
		<name>Pine9</name>
		<LookAt>
			<longitude>-2.900581981437705</longitude>
			<latitude>53.21362992618153</latitude>
			<altitude>29.18092669209446</altitude>
			<heading>-6.227150265705301</heading>
			<tilt>0.2081521991571915</tilt>
			<gx:fovy>35</gx:fovy>
			<range>126.1704722124159</range>
			<altitudeMode>absolute</altitudeMode>
		</LookAt>
		<styleUrl>#__managed_style_03CA15A57741E4B0ED2F</styleUrl>
		<Point>
			<coordinates>-2.899989065809271,53.21377469849358,39.11542980679501</coordinates>
		</Point>
	</Placemark>
	<Placemark id="06F157298E41E4B32154">
		<name>Pine10</name>
		<LookAt>
			<longitude>-2.900581981437705</longitude>
			<latitude>53.21362992618153</latitude>
			<altitude>29.18092669209446</altitude>
			<heading>-6.227150265705301</heading>
			<tilt>0.2081521991571915</tilt>
			<gx:fovy>35</gx:fovy>
			<range>126.1704722124159</range>
			<altitudeMode>absolute</altitudeMode>
		</LookAt>
		<styleUrl>#__managed_style_03CA15A57741E4B0ED2F</styleUrl>
		<Point>
			<coordinates>-2.9000317313145,53.21368465879902,37.99185710885625</coordinates>
		</Point>
	</Placemark>
	<Placemark id="06C9A54D1241E4B336DC">
		<name>Pine11</name>
		<LookAt>
			<longitude>-2.900581981437705</longitude>
			<latitude>53.21362992618153</latitude>
			<altitude>29.18092669209446</altitude>
			<heading>-6.227150265705301</heading>
			<tilt>0.2081521991571915</tilt>
			<gx:fovy>35</gx:fovy>
			<range>126.1704722124159</range>
			<altitudeMode>absolute</altitudeMode>
		</LookAt>
		<styleUrl>#__managed_style_03CA15A57741E4B0ED2F</styleUrl>
		<Point>
			<coordinates>-2.899964754092471,53.21360481569926,36.24931435218394</coordinates>
		</Point>
	</Placemark>
	<Placemark id="066DD6957441E4B35180">
		<name>Pine12</name>
		<LookAt>
			<longitude>-2.900581981437705</longitude>
			<latitude>53.21362992618153</latitude>
			<altitude>29.18092669209446</altitude>
			<heading>-6.227150265705301</heading>
			<tilt>0.2081521991571915</tilt>
			<gx:fovy>35</gx:fovy>
			<range>126.1704722124159</range>
			<altitudeMode>absolute</altitudeMode>
		</LookAt>
		<styleUrl>#__managed_style_03CA15A57741E4B0ED2F</styleUrl>
		<Point>
			<coordinates>-2.899722378534257,53.21361598272873,24.1099832560852</coordinates>
		</Point>
	</Placemark>
	<Placemark id="0460E196C641E4B451B4">
		<name>Pine13</name>
		<LookAt>
			<longitude>-2.898954229841314</longitude>
			<latitude>53.21243139115388</latitude>
			<altitude>19.4228146941793</altitude>
			<heading>-6.226829235244485</heading>
			<tilt>0.2081552822822334</tilt>
			<gx:fovy>35</gx:fovy>
			<range>221.5116778332231</range>
			<altitudeMode>absolute</altitudeMode>
		</LookAt>
		<styleUrl>#__managed_style_03CA15A57741E4B0ED2F</styleUrl>
		<Point>
			<coordinates>-2.898631599455427,53.2125584822905,37.36121821953898</coordinates>
		</Point>
	</Placemark>
	<Placemark id="04E5D673C141E4B48A2C">
		<name>Oak1</name>
		<LookAt>
			<longitude>-2.901617820671793</longitude>
			<latitude>53.21189483391112</latitude>
			<altitude>17.7866212826951</altitude>
			<heading>-6.228419006374324</heading>
			<tilt>0.2081520226484084</tilt>
			<gx:fovy>35</gx:fovy>
			<range>122.1651512670542</range>
			<altitudeMode>absolute</altitudeMode>
		</LookAt>
		<styleUrl>#__managed_style_03CA15A57741E4B0ED2F</styleUrl>
		<Point>
			<coordinates>-2.901802582414038,53.21189670504701,35.08346590540516</coordinates>
		</Point>
	</Placemark>
	<Placemark id="094FA1453341E4B4D884">
		<name>Oak2</name>
		<LookAt>
			<longitude>-2.901617820671793</longitude>
			<latitude>53.21189483391112</latitude>
			<altitude>17.7866212826951</altitude>
			<heading>-6.228419006374324</heading>
			<tilt>0.2081520226484084</tilt>
			<gx:fovy>35</gx:fovy>
			<range>122.1651512670542</range>
			<altitudeMode>absolute</altitudeMode>
		</LookAt>
		<styleUrl>#__managed_style_03CA15A57741E4B0ED2F</styleUrl>
		<Point>
			<coordinates>-2.901838541265734,53.21178513694809,32.00858831807729</coordinates>
		</Point>
	</Placemark>
</Document>
</kml>
